{"type":"FeatureCollection","features":[{"type":"Feature","geometry":{"type":"Polygon","coordinates":[[[-39.0782,-7.422],[-38.9699,-7.4273],[-38.962,-7.3959],[-39.0005,-7.3085],[-39.0495,-7.2916],[-39.0918,-7.2597],[-39.0812,-7.3012],[-39.1021,-7.3404],[-39.0782,-7.422]]]},"properties":{"cd":"13013","nome":"ABAIARA"}},{"type":"Feature","geometry":{"type":"Polygon","coordinates":[[[-38.6869,-4.2871],[-38.6524,-4.2462],[-38.6122,-4.226],[-38.5705,-4.2355],[-38.6144,-4.1829],[-38.6188,-4.1635],[-38.6535,-4.1577],[-38.7175,-4.1872],[-38.7069,-4.2478],[-38.7207,-4.2799],[-38.6869,-4.2871]]]},"properties":{"cd":"13145","nome":"ACARAPE"}},{"type":"Feature","geometry":{"type":"Polygon","coordinates":[[[-40.1702,-2.9441],[-40.1705,-2.9847],[-40.1558,-3.0322],[-40.1216,-3.035],[-40.0827,-3.0859],[-40.0838,-3.1154],[-40.0026,-3.22],[-39.9342,-3.3157],[-39.9075,-3.2736],[-39.9656,-3.2394],[-39.997,-3.199],[-39.989,-3.1611],[-39.9906,-3.0951],[-39.973,-3.0741],[-39.9836,-3.0176],[-39.9741,-3.001],[-39.9665,-2.9314],[-39.9424,-2.8664],[-39.9656,-2.8514],[-40.1262,-2.8235],[-40.1438,-2.8402],[-40.1884,-2.8124],[-40.2367,-2.815],[-40.3261,-2.8061],[-40.3719,-2.8124],[-40.3613,-2.8668],[-40.3244,-2.8613],[-40.1959,-2.8731],[-40.151,-2.8842],[-40.1702,-2.9441]]]},"properties":{"cd":"13030","nome":"ACARAÚ"}},{"type":"Feature","geometry":{"type":"Polygon","coordinates":[[[-39.3633,-5.9809],[-39.4813,-5.988],[-39.5357,-5.9798],[-39.5658,-5.9626],[-39.6113,-5.9819],[-39.6523,-5.9664],[-39.6747,-6.0222],[-39.7029,-6.0053],[-39.8136,-6.0127],[-39.8255,-6.0417],[-39.8886,-6.0974],[-39.8925,-6.1139],[-39.7967,-6.1477],[-39.7893,-6.2065],[-39.7702,-6.205],[-39.7202,-6.2728],[-39.7089,-6.3404],[-39.652,-6.3374],[-39.594,-6.3097],[-39.5601,-6.3327],[-39.5228,-6.3394],[-39.4595,-6.3248],[-39.4639,-6.2804],[-39.4172,-6.261],[-39.3906,-6.222],[-39.3568,-6.2257],[-39.3077,-6.1746],[-39.2597,-6.1284],[-39.1417,-6.1544],[-39.09,-6.0937],[-39.0507,-6.0254],[-39.0601,-6.0033],[-39.1126,-5.9771],[-39.1306,-5.9836],[-39.1699,-5.9602],[-39.1979,-5.9576],[-39.2124,-5.9917],[-39.3065,-5.9937],[-39.3205,-6.0069],[-39.3633,-5.9809]]]},"properties":{"cd":"13056","nome":"ACOPIARA"}},{"type":"Feature","geometry":{"type":"Polygon","coordinates":[[[-40.3705,-6.8032],[-40.3006,-6.8068],[-40.2421,-6.7768],[-40.1843,-6.7597],[-40.1499,-6.7845],[-40.1453,-6.8187],[-40.114,-6.8175],[-40.0812,-6.7914],[-40.0098,-6.71],[-40.0051,-6.6868],[-40.0548,-6.6113],[-40.0262,-6.5827],[-40.0327,-6.5403],[-40.0591,-6.5009],[-40.0335,-6.4316],[-40.0762,-6.4],[-40.0841,-6.3674],[-40.1123,-6.349],[-40.1866,-6.3647],[-40.3274,-6.4019],[-40.3662,-6.4302],[-40.3916,-6.4748],[-40.4424,-6.4899],[-40.4531,-6.524],[-40.5784,-6.5488],[-40.61,-6.6031],[-40.7364,-6.6003],[-40.722,-6.6177],[-40.7322,-6.6536],[-40.7102,-6.6761],[-40.6513,-6.6782],[-40.6022,-6.716],[-40.4769,-6.7328],[-40.4322,-6.813],[-40.3705,-6.8032]]]},"properties":{"cd":"13072","nome":"AIUABA"}},{"type":"Feature","geometry":{"type":"Polygon","coordinates":[[[-40.499,-3.6298],[-40.4985,-3.5776],[-40.5218,-3.545],[-40.5207,-3.5141],[-40.5408,-3.5223],[-40.554,-3.5381],[-40.6071,-3.5958],[-40.5877,-3.639],[-40.5487,-3.6537],[-40.5146,-3.6489],[-40.499,-3.6298]]]},"properties":{"cd":"13099","nome":"ALCÂNTARAS"}},{"type":"Feature","geometry":{"type":"Polygon","coordinates":[[[-39.6806,-7.0161],[-39.6596,-7.0071],[-39.6335,-6.9688],[-39.6399,-6.9456],[-39.6933,-6.9672],[-39.7023,-6.9543],[-39.7592,-6.9934],[-39.7475,-7.0225],[-39.7166,-7.0022],[-39.6806,-7.0161]]]},"properties":{"cd":"13110","nome":"ALTANEIRA"}},{"type":"Feature","geometry":{"type":"Polygon","coordinates":[[[-38.4329,-5.627],[-38.2675,-5.6014],[-38.2488,-5.6455],[-38.1941,-5.6328],[-38.1377,-5.6753],[-38.0828,-5.6724],[-38.0281,-5.6233],[-38.0574,-5.6101],[-38.0358,-5.5672],[-38.0777,-5.4451],[-38.1585,-5.3578],[-38.2607,-5.4105],[-38.3137,-5.3834],[-38.3413,-5.4035],[-38.3944,-5.363],[-38.4129,-5.3743],[-38.4397,-5.4256],[-38.4301,-5.4679],[-38.4596,-5.5127],[-38.4375,-5.5453],[-38.4329,-5.627]]]},"properties":{"cd":"13137","nome":"ALTO SANTO"}},{"type":"Feature","geometry":{"type":"Polygon","coordinates":[[[-39.7836,-3.4644],[-39.7351,-3.4004],[-39.7381,-3.3573],[-39.7029,-3.323],[-39.7287,-3.2448],[-39.7035,-3.2458],[-39.6796,-3.1832],[-39.6261,-3.1489],[-39.609,-3.1539],[-39.5661,-3.1313],[-39.5506,-3.0792],[-39.5921,-3.0694],[-39.6198,-3.026],[-39.6606,-3.0211],[-39.6768,-3.0012],[-39.721,-2.9969],[-39.709,-3.0145],[-39.868,-3.1246],[-39.8687,-3.1697],[-39.9026,-3.2079],[-39.8891,-3.224],[-39.9075,-3.2736],[-39.9342,-3.3157],[-39.9392,-3.3347],[-39.9872,-3.3655],[-39.9965,-3.4086],[-40.0276,-3.4373],[-39.951,-3.4331],[-39.7836,-3.4644]]]},"properties":{"cd":"15873","nome":"AMONTADA"}},{"type":"Feature","geometry":{"type":"Polygon","coordinates":[[[-39.833,-6.6999],[-39.838,-6.6792],[-39.9133,-6.6887],[-39.9397,-6.712],[-39.9866,-6.6802],[-40.0051,-6.6868],[-40.0098,-6.71],[-40.0812,-6.7914],[-40.114,-6.8175],[-40.1453,-6.8187],[-40.147,-6.8306],[-40.0772,-6.8567],[-40.0535,-6.825],[-40.0021,-6.8031],[-39.9869,-6.8151],[-39.9094,-6.7635],[-39.833,-6.6999]]]},"properties":{"cd":"13153","nome":"ANTONINA DO NORTE"}},{"type":"Feature","geometry":{"type":"Polygon","coordinates":[[[-39.2037,-4.0468],[-39.1825,-3.978],[-39.2145,-3.9454],[-39.2401,-3.9003],[-39.2939,-3.9198],[-39.3087,-3.9364],[-39.3404,-3.8608],[-39.3542,-3.8444],[-39.4148,-3.8299],[-39.4304,-3.8555],[-39.4576,-3.9289],[-39.4841,-3.9739],[-39.4857,-4.0052],[-39.4552,-4.0],[-39.4442,-3.9692],[-39.3242,-4.0902],[-39.2701,-4.0862],[-39.2276,-4.0727],[-39.2037,-4.0468]]]},"properties":{"cd":"13170","nome":"APUIARÉS"}},{"type":"Feature","geometry":{"type":"Polygon","coordinates":[[[-38.5359,-4.0414],[-38.504,-4.0601],[-38.3725,-4.0785],[-38.3703,-4.0656],[-38.3133,-4.011],[-38.2533,-4.0287],[-38.2364,-4.0228],[-38.2233,-4.0072],[-38.2729,-3.9447],[-38.3035,-3.936],[-38.3603,-3.8849],[-38.4018,-3.8238],[-38.4094,-3.8191],[-38.4486,-3.9235],[-38.5088,-3.9367],[-38.5186,-4.018],[-38.5359,-4.0414]]]},"properties":{"cd":"13196","nome":"AQUIRAZ"}},{"type":"Feature","geometry":{"type":"Polygon","coordinates":[[[-37.9505,-4.6618],[-37.9089,-4.6638],[-37.8447,-4.6832],[-37.8291,-4.6662],[-37.8009,-4.6973],[-37.7445,-4.7196],[-37.6163,-4.718],[-37.6115,-4.7682],[-37.5887,-4.8083],[-37.6403,-4.9264],[-37.4671,-4.8859],[-37.4464,-4.881],[-37.3569,-4.8581],[-37.3557,-4.7942],[-37.3991,-4.7759],[-37.504,-4.7919],[-37.5572,-4.7225],[-37.5404,-4.6447],[-37.6031,-4.6173],[-37.6524,-4.5732],[-37.7324,-4.4885],[-37.7542,-4.4371],[-37.7695,-4.4264],[-37.7853,-4.443],[-37.7705,-4.4754],[-37.7887,-4.5072],[-37.8241,-4.5041],[-37.8677,-4.5429],[-37.9634,-4.5303],[-37.9806,-4.5413],[-37.9864,-4.5836],[-37.9735,-4.6155],[-37.9932,-4.6607],[-37.9505,-4.6618]]]},"properties":{"cd":"13218","nome":"ARACATI"}},{"type":"Feature","geometry":{"type":"Polygon","coordinates":[[[-38.7657,-4.6232],[-38.7004,-4.6123],[-38.6892,-4.652],[-38.6625,-4.6621],[-38.6309,-4.7005],[-38.5736,-4.6695],[-38.6126,-4.6526],[-38.6495,-4.5557],[-38.6217,-4.5356],[-38.6357,-4.4859],[-38.6308,-4.451],[-38.6019,-4.4205],[-38.5676,-4.4133],[-38.5339,-4.3689],[-38.5741,-4.3852],[-38.6117,-4.3793],[-38.6435,-4.4151],[-38.6696,-4.4128],[-38.6936,-4.3799],[-38.7113,-4.3841],[-38.7455,-4.3521],[-38.7656,-4.3055],[-38.7872,-4.321],[-38.8237,-4.3139],[-38.8416,-4.3612],[-38.8423,-4.4542],[-38.8339,-4.4742],[-38.7909,-4.5101],[-38.7472,-4.5272],[-38.7657,-4.6232]]]},"properties":{"cd":"13234","nome":"ARACOIABA"}},{"type":"Feature","geometry":{"type":"Polygon","coordinates":[[[-40.8823,-4.7842],[-40.843,-4.785],[-40.8245,-4.8104],[-40.7694,-4.8385],[-40.762,-4.8665],[-40.723,-4.8419],[-40.6994,-4.8621],[-40.6655,-4.8443],[-40.6281,-4.7903],[-40.6471,-4.7471],[-40.6602,-4.6864],[-40.6698,-4.7051],[-40.7322,-4.7152],[-40.8064,-4.7056],[-40.8442,-4.7188],[-40.8722,-4.7123],[-40.8823,-4.7842]]]},"properties":{"cd":"13420","nome":"ARARENDÁ"}},{"type":"Feature","geometry":{"type":"Polygon","coordinates":[[[-40.1571,-7.3715],[-40.1278,-7.3819],[-40.0007,-7.3745],[-39.9263,-7.341],[-39.9046,-7.3383],[-39.8901,-7.3398],[-39.889,-7.1424],[-39.8973,-7.097],[-39.9175,-7.0943],[-39.9809,-7.1451],[-40.0,-7.1511],[-40.0719,-7.1457],[-40.1362,-7.1123],[-40.1647,-7.0474],[-40.183,-7.0851],[-40.2405,-7.1143],[-40.2686,-7.1747],[-40.2515,-7.2022],[-40.2668,-7.2484],[-40.242,-7.318],[-40.1957,-7.3581],[-40.1571,-7.3715]]]},"properties":{"cd":"13250","nome":"ARARIPE"}},{"type":"Feature","geometry":{"type":"Polygon","coordinates":[[[-38.9988,-4.4808],[-38.9741,-4.4394],[-38.983,-4.3808],[-38.9704,-4.3682],[-39.0137,-4.3736],[-39.0536,-4.3521],[-39.0673,-4.3989],[-39.0944,-4.3869],[-39.0901,-4.4132],[-39.0284,-4.4603],[-38.9988,-4.4808]]]},"properties":{"cd":"13277","nome":"ARATUBA"}},{"type":"Feature","geometry":{"type":"Polygon","coordinates":[[[-39.9564,-6.1003],[-40.0471,-6.0984],[-40.0693,-6.1113],[-40.1462,-6.1121],[-40.1955,-6.1426],[-40.226,-6.1316],[-40.4052,-6.3125],[-40.3274,-6.4019],[-40.1866,-6.3647],[-40.1123,-6.349],[-40.0841,-6.3674],[-40.0711,-6.3553],[-40.0475,-6.279],[-40.0273,-6.2797],[-40.0163,-6.2237],[-39.9869,-6.2208],[-39.9261,-6.1958],[-39.8956,-6.1599],[-39.8925,-6.1139],[-39.8886,-6.0974],[-39.9179,-6.0822],[-39.9564,-6.1003]]]},"properties":{"cd":"13293","nome":"ARNEIROZ"}},{"type":"Feature","geometry":{"type":"Polygon","coordinates":[[[-39.7475,-7.0225],[-39.7592,-6.9934],[-39.7023,-6.9543],[-39.6933,-6.9672],[-39.6399,-6.9456],[-39.6075,-6.9174],[-39.6468,-6.8928],[-39.6531,-6.8207],[-39.6915,-6.8245],[-39.7086,-6.7853],[-39.7414,-6.8055],[-39.7908,-6.8023],[-39.8788,-6.7674],[-39.9094,-6.7635],[-39.9869,-6.8151],[-40.0021,-6.8031],[-40.0535,-6.825],[-40.0772,-6.8567],[-40.1255,-6.887],[-40.0592,-6.9331],[-40.0818,-6.9829],[-40.0732,-7.0051],[-39.9494,-7.0108],[-39.943,-7.0768],[-39.8899,-7.0532],[-39.8074,-7.0373],[-39.7725,-7.061],[-39.7475,-7.0225]]]},"properties":{"cd":"13315","nome":"ASSARÉ"}},{"type":"Feature","geometry":{"type":"Polygon","coordinates":[[[-38.909,-7.0827],[-38.8562,-6.9775],[-38.7811,-7.0006],[-38.765,-6.9939],[-38.7423,-6.9743],[-38.7652,-6.9109],[-38.7742,-6.8684],[-38.8197,-6.8567],[-38.856,-6.859],[-38.9649,-6.862],[-39.0154,-6.8784],[-39.0868,-6.9373],[-39.107,-6.9635],[-39.149,-6.9833],[-39.1573,-7.0336],[-39.1159,-7.1011],[-39.1358,-7.1308],[-39.1151,-7.1553],[-39.0783,-7.1563],[-39.0501,-7.1383],[-39.0255,-7.1501],[-38.9579,-7.0817],[-38.909,-7.0827]]]},"properties":{"cd":"13331","nome":"AURORA"}},{"type":"Feature","geometry":{"type":"Polygon","coordinates":[[[-38.8466,-6.7092],[-38.7796,-6.7217],[-38.7486,-6.7555],[-38.7198,-6.7675],[-38.6524,-6.7571],[-38.6725,-6.7062],[-38.8009,-6.6589],[-38.8437,-6.6673],[-38.8466,-6.7092]]]},"properties":{"cd":"13358","nome":"BAIXIO"}},{"type":"Feature","geometry":{"type":"Polygon","coordinates":[[[-38.911,-5.4555],[-38.92,-5.4192],[-38.923,-5.3292],[-38.85,-5.2893],[-38.8093,-5.2214],[-38.7756,-5.2044],[-38.7082,-5.201],[-38.6917,-5.2273],[-38.6773,-5.2273],[-38.6124,-5.1505],[-38.6182,-5.1189],[-38.6502,-5.1224],[-38.6993,-5.0934],[-38.7441,-5.0949],[-38.7616,-5.0787],[-38.8131,-5.0666],[-38.9003,-5.1637],[-38.9569,-5.1527],[-39.0316,-5.1641],[-39.0832,-5.1512],[-39.0887,-5.173],[-39.0469,-5.2264],[-39.0335,-5.2663],[-39.0545,-5.3],[-39.0851,-5.4025],[-39.0555,-5.4297],[-39.0713,-5.4863],[-39.0603,-5.5111],[-39.027,-5.4899],[-38.9754,-5.521],[-38.9289,-5.4857],[-38.911,-5.4555]]]},"properties":{"cd":"13382","nome":"BANABUIÚ"}},{"type":"Feature","geometry":{"type":"Polygon","coordinates":[[[-39.2541,-7.4877],[-39.2544,-7.4477],[-39.2229,-7.3973],[-39.2409,-7.3629],[-39.2067,-7.3016],[-39.2577,-7.2631],[-39.3467,-7.2655],[-39.3755,-7.3051],[-39.4011,-7.3072],[-39.4463,-7.3359],[-39.4476,-7.5722],[-39.4207,-7.603],[-39.3919,-7.6082],[-39.3696,-7.6193],[-39.3718,-7.4581],[-39.2541,-7.4877]]]},"properties":{"cd":"13374","nome":"BARBALHA"}},{"type":"Feature","geometry":{"type":"Polygon","coordinates":[[[-38.5705,-4.2355],[-38.6122,-4.226],[-38.6524,-4.2462],[-38.6869,-4.2871],[-38.6999,-4.3301],[-38.6936,-4.3799],[-38.6696,-4.4128],[-38.6435,-4.4151],[-38.6117,-4.3793],[-38.5741,-4.3852],[-38.5339,-4.3689],[-38.5484,-4.3231],[-38.5478,-4.2715],[-38.5705,-4.2355]]]},"properties":{"cd":"13129","nome":"BARREIRA"}},{"type":"Feature","geometry":{"type":"Polygon","coordinates":[[[-38.6442,-7.1838],[-38.6818,-7.1873],[-38.6779,-7.1327],[-38.6564,-7.0924],[-38.6698,-7.0477],[-38.6738,-7.0462],[-38.6914,-7.0291],[-38.765,-6.9939],[-38.7811,-7.0006],[-38.8562,-6.9775],[-38.909,-7.0827],[-38.9477,-7.1419],[-38.9145,-7.243],[-38.8418,-7.2398],[-38.7982,-7.2192],[-38.783,-7.2268],[-38.7384,-7.2376],[-38.62,-7.2201],[-38.6442,-7.1838]]]},"properties":{"cd":"13390","nome":"BARRO"}},{"type":"Feature","geometry":{"type":"Polygon","coordinates":[[[-41.2715,-2.9707],[-41.2479,-2.9721],[-41.1935,-2.9984],[-41.1861,-3.0302],[-41.1576,-3.071],[-41.1718,-3.0859],[-41.1511,-3.1251],[-41.1015,-3.0938],[-41.1196,-3.065],[-41.0817,-3.0195],[-41.0647,-2.9615],[-41.0864,-2.9078],[-41.1017,-2.9009],[-41.1768,-2.8862],[-41.2712,-2.8872],[-41.3227,-2.9213],[-41.3218,-2.9517],[-41.2715,-2.9707]]]},"properties":{"cd":"13404","nome":"BARROQUINHA"}},{"type":"Feature","geometry":{"type":"Polygon","coordinates":[[[-38.9592,-4.3569],[-38.9435,-4.3867],[-38.8871,-4.4307],[-38.8521,-4.4466],[-38.8006,-4.5829],[-38.7657,-4.6232],[-38.7472,-4.5272],[-38.7909,-4.5101],[-38.8339,-4.4742],[-38.8423,-4.4542],[-38.8416,-4.3612],[-38.8237,-4.3139],[-38.7872,-4.321],[-38.7656,-4.3055],[-38.7956,-4.2957],[-38.8095,-4.2503],[-38.8488,-4.2298],[-38.8912,-4.277],[-38.9336,-4.3231],[-38.9592,-4.3569]]]},"properties":{"cd":"13412","nome":"BATURITÉ"}},{"type":"Feature","geometry":{"type":"Polygon","coordinates":[[[-37.8451,-4.3817],[-37.9066,-4.3398],[-37.9883,-4.2608],[-38.0111,-4.2495],[-38.1149,-4.1491],[-38.1477,-4.1021],[-38.182,-4.1953],[-38.2274,-4.2056],[-38.2273,-4.3503],[-38.2506,-4.3583],[-38.2688,-4.405],[-38.3199,-4.433],[-38.3604,-4.5015],[-38.2349,-4.5742],[-38.2146,-4.5902],[-38.1821,-4.6227],[-38.1238,-4.6198],[-38.0836,-4.5876],[-38.0007,-4.5977],[-37.9864,-4.5836],[-37.9806,-4.5413],[-37.9634,-4.5303],[-37.9537,-4.4799],[-37.9763,-4.4324],[-37.9504,-4.4038],[-37.9049,-4.4139],[-37.8581,-4.4009],[-37.8451,-4.3817]]]},"properties":{"cd":"13439","nome":"BEBERIBE"}},{"type":"Feature","geometry":{"type":"Polygon","coordinates":[[[-40.495,-3.062],[-40.4206,-3.1218],[-40.3821,-3.1341],[-40.3646,-3.1548],[-40.3528,-3.2027],[-40.32,-3.1929],[-40.2969,-3.2046],[-40.2684,-3.1504],[-40.2357,-3.1683],[-40.1476,-3.1069],[-40.1396,-3.0733],[-40.0838,-3.1154],[-40.0827,-3.0859],[-40.1216,-3.035],[-40.1558,-3.0322],[-40.1705,-2.9847],[-40.1702,-2.9441],[-40.2368,-2.9521],[-40.2639,-2.9398],[-40.3201,-2.9438],[-40.3311,-2.964],[-40.3722,-2.965],[-40.4101,-2.951],[-40.4098,-2.9663],[-40.5119,-2.9544],[-40.495,-3.062]]]},"properties":{"cd":"13455","nome":"BELA CRUZ"}},{"type":"Feature","geometry":{"type":"Polygon","coordinates":[[[-39.6652,-5.3625],[-39.627,-5.3071],[-39.624,-5.2552],[-39.5362,-5.1188],[-39.6139,-5.0843],[-39.6288,-5.043],[-39.5975,-4.9987],[-39.6186,-4.9081],[-39.6502,-4.8703],[-39.6629,-4.808],[-39.6775,-4.7893],[-39.7226,-4.7776],[-39.7262,-4.7495],[-39.7294,-4.6959],[-39.7426,-4.7196],[-39.8068,-4.7078],[-39.8238,-4.73],[-39.8559,-4.7363],[-39.8849,-4.7902],[-39.9286,-4.7745],[-39.9493,-4.8175],[-39.9457,-4.8393],[-39.8947,-4.8854],[-39.9012,-4.9047],[-39.9566,-4.9254],[-39.9685,-4.9476],[-39.9578,-5.0254],[-39.9976,-5.0845],[-40.16,-5.1648],[-40.0967,-5.1595],[-40.0536,-5.1804],[-40.0236,-5.2074],[-40.0471,-5.2395],[-40.0486,-5.279],[-40.0209,-5.328],[-39.9931,-5.3498],[-39.9574,-5.3483],[-39.9223,-5.39],[-39.8969,-5.3968],[-39.8764,-5.3739],[-39.8423,-5.3689],[-39.7993,-5.3989],[-39.7827,-5.3795],[-39.6872,-5.3584],[-39.6652,-5.3625]]]},"properties":{"cd":"13471","nome":"BOA VIAGEM"}},{"type":"Feature","geometry":{"type":"Polygon","coordinates":[[[-39.0272,-7.6343],[-38.9681,-7.6066],[-38.8919,-7.611],[-38.8948,-7.7505],[-38.8697,-7.7115],[-38.8281,-7.7196],[-38.8242,-7.6783],[-38.7606,-7.656],[-38.7428,-7.6603],[-38.7176,-7.6269],[-38.7759,-7.6042],[-38.8824,-7.4571],[-38.9405,-7.428],[-38.9699,-7.4273],[-39.0782,-7.422],[-39.0939,-7.4639],[-39.1535,-7.4509],[-39.0884,-7.4856],[-39.0299,-7.533],[-39.0272,-7.6343]]]},"properties":{"cd":"13498","nome":"BREJO SANTO"}},{"type":"Feature","geometry":{"type":"Polygon","coordinates":[[[-40.5901,-2.8464],[-40.6702,-2.8434],[-40.7604,-2.8488],[-40.8459,-2.8852],[-40.8582,-2.8614],[-40.9065,-2.8612],[-40.9234,-2.8745],[-41.0024,-2.8897],[-41.1017,-2.9009],[-41.0864,-2.9078],[-41.0647,-2.9615],[-41.0817,-3.0195],[-41.1196,-3.065],[-41.1015,-3.0938],[-40.9918,-3.0302],[-40.8799,-3.0108],[-40.8388,-3.0363],[-40.6918,-3.0085],[-40.5636,-3.0164],[-40.495,-3.062],[-40.5119,-2.9544],[-40.53,-2.9419],[-40.528,-2.8896],[-40.5609,-2.8827],[-40.5901,-2.8464]]]},"properties":{"cd":"13510","nome":"CAMOCIM"}},{"type":"Feature","geometry":{"type":"Polygon","coordinates":[[[-40.4594,-7.0785],[-40.4469,-7.0893],[-40.3349,-7.1277],[-40.3239,-7.082],[-40.2516,-7.0602],[-40.2131,-7.0294],[-40.1346,-7.0012],[-40.1223,-7.0221],[-40.0818,-6.9829],[-40.0592,-6.9331],[-40.1255,-6.887],[-40.0772,-6.8567],[-40.147,-6.8306],[-40.1453,-6.8187],[-40.1499,-6.7845],[-40.1843,-6.7597],[-40.2421,-6.7768],[-40.3006,-6.8068],[-40.3705,-6.8032],[-40.3871,-6.8301],[-40.4285,-6.8643],[-40.425,-6.9353],[-40.4277,-7.0339],[-40.4594,-7.0785]]]},"properties":{"cd":"13536","nome":"CAMPOS SALES"}},{"type":"Feature","geometry":{"type":"Polygon","coordinates":[[[-39.0944,-4.3869],[-39.1678,-4.3817],[-39.1914,-4.3082],[-39.2398,-4.2837],[-39.3345,-4.194],[-39.4916,-4.2906],[-39.5067,-4.2425],[-39.5701,-4.2192],[-39.5408,-4.16],[-39.5471,-4.1101],[-39.5327,-4.0844],[-39.5574,-4.1013],[-39.5976,-4.0944],[-39.6282,-4.0698],[-39.6649,-4.0817],[-39.7401,-4.1102],[-39.7739,-4.1737],[-39.7879,-4.1886],[-39.7658,-4.248],[-39.7302,-4.2749],[-39.7345,-4.3332],[-39.7115,-4.3802],[-39.7519,-4.4075],[-39.7295,-4.4475],[-39.7226,-4.4842],[-39.7682,-4.5236],[-39.7458,-4.5448],[-39.7044,-4.5441],[-39.6427,-4.5069],[-39.6073,-4.5026],[-39.5625,-4.4707],[-39.5299,-4.4884],[-39.4937,-4.4817],[-39.4522,-4.6002],[-39.4215,-4.6451],[-39.4257,-4.6794],[-39.401,-4.6866],[-39.3713,-4.7173],[-39.3673,-4.7248],[-39.3049,-4.7074],[-39.2822,-4.6515],[-39.18,-4.6553],[-39.1298,-4.6281],[-39.0656,-4.5611],[-39.0841,-4.536],[-39.085,-4.4716],[-39.0284,-4.4603],[-39.0901,-4.4132],[-39.0944,-4.3869]]]},"properties":{"cd":"13552","nome":"CANINDÉ"}},{"type":"Feature","geometry":{"type":"Polygon","coordinates":[[[-38.9988,-4.4808],[-38.9801,-4.4965],[-38.9499,-4.4877],[-38.9007,-4.5281],[-38.8733,-4.5263],[-38.8422,-4.5494],[-38.8392,-4.5787],[-38.8006,-4.5829],[-38.8521,-4.4466],[-38.8871,-4.4307],[-38.9435,-4.3867],[-38.9592,-4.3569],[-38.9704,-4.3682],[-38.983,-4.3808],[-38.9741,-4.4394],[-38.9988,-4.4808]]]},"properties":{"cd":"13579","nome":"CAPISTRANO"}},{"type":"Feature","geometry":{"type":"Polygon","coordinates":[[[-39.3345,-4.194],[-39.2398,-4.2837],[-39.1914,-4.3082],[-39.1678,-4.3817],[-39.0944,-4.3869],[-39.0673,-4.3989],[-39.0536,-4.3521],[-39.0259,-4.3192],[-39.0456,-4.3001],[-39.0032,-4.2611],[-39.0061,-4.2119],[-38.9505,-4.182],[-38.9547,-4.137],[-38.9303,-4.1384],[-38.9436,-4.1036],[-38.9842,-4.0444],[-39.0035,-3.9918],[-39.0278,-4.0631],[-39.0639,-4.0665],[-39.2037,-4.0468],[-39.1553,-4.0982],[-39.1606,-4.1267],[-39.2064,-4.1312],[-39.2049,-4.1759],[-39.3092,-4.1782],[-39.3345,-4.194]]]},"properties":{"cd":"13595","nome":"CARIDADE"}},{"type":"Feature","geometry":{"type":"Polygon","coordinates":[[[-40.4724,-4.0858],[-40.4313,-4.0909],[-40.3735,-4.0919],[-40.3602,-4.0319],[-40.3946,-3.9672],[-40.4157,-3.8065],[-40.4454,-3.8348],[-40.5009,-3.8525],[-40.5815,-3.8605],[-40.6227,-3.8254],[-40.6792,-3.8418],[-40.7132,-3.8869],[-40.7131,-3.9181],[-40.6656,-3.9391],[-40.6671,-3.9859],[-40.6392,-4.0158],[-40.5679,-4.0469],[-40.5127,-4.0463],[-40.4724,-4.0858]]]},"properties":{"cd":"13617","nome":"CARIRÉ"}},{"type":"Feature","geometry":{"type":"Polygon","coordinates":[[[-39.3402,-7.1086],[-39.2928,-7.1103],[-39.2811,-7.0927],[-39.1934,-7.1506],[-39.1358,-7.1308],[-39.1159,-7.1011],[-39.1573,-7.0336],[-39.149,-6.9833],[-39.107,-6.9635],[-39.116,-6.9428],[-39.1666,-6.9358],[-39.2356,-6.9283],[-39.2465,-6.9353],[-39.3466,-6.9363],[-39.3388,-6.9058],[-39.395,-6.9224],[-39.4356,-6.9634],[-39.4523,-7.0093],[-39.4548,-7.0565],[-39.3616,-7.0576],[-39.3402,-7.1086]]]},"properties":{"cd":"13633","nome":"CARIRIAÇU"}},{"type":"Feature","geometry":{"type":"Polygon","coordinates":[[[-39.5104,-6.7767],[-39.4782,-6.7556],[-39.4423,-6.7902],[-39.382,-6.7696],[-39.3279,-6.7703],[-39.3022,-6.7398],[-39.3363,-6.7248],[-39.3196,-6.6933],[-39.2905,-6.6745],[-39.2795,-6.6292],[-39.3128,-6.5845],[-39.2984,-6.5617],[-39.2813,-6.5258],[-39.3405,-6.535],[-39.3588,-6.5088],[-39.3481,-6.4853],[-39.3982,-6.4649],[-39.4207,-6.4627],[-39.4619,-6.5101],[-39.5118,-6.5252],[-39.5363,-6.5576],[-39.6778,-6.6228],[-39.7374,-6.6332],[-39.6658,-6.6373],[-39.6471,-6.6849],[-39.6414,-6.739],[-39.5993,-6.7586],[-39.6158,-6.7885],[-39.5565,-6.7766],[-39.5104,-6.7767]]]},"properties":{"cd":"13650","nome":"CARIÚS"}},{"type":"Feature","geometry":{"type":"Polygon","coordinates":[[[-41.0991,-4.1818],[-41.0741,-4.2005],[-41.0007,-4.1952],[-40.9754,-4.2302],[-40.9009,-4.159],[-40.8912,-4.1097],[-40.9408,-4.0576],[-40.9804,-4.0549],[-41.0334,-4.0669],[-41.0681,-4.0496],[-41.0964,-4.0656],[-41.1394,-4.121],[-41.1183,-4.1652],[-41.0981,-4.1805],[-41.0991,-4.1818]]]},"properties":{"cd":"13676","nome":"CARNAUBAL"}},{"type":"Feature","geometry":{"type":"Polygon","coordinates":[[[-38.3604,-4.5015],[-38.3199,-4.433],[-38.2688,-4.405],[-38.2506,-4.3583],[-38.2273,-4.3503],[-38.2274,-4.2056],[-38.182,-4.1953],[-38.1477,-4.1021],[-38.2233,-4.0072],[-38.2364,-4.0228],[-38.2628,-4.0734],[-38.2913,-4.0964],[-38.3488,-4.0881],[-38.3703,-4.0656],[-38.3725,-4.0785],[-38.3819,-4.1451],[-38.3929,-4.2231],[-38.3854,-4.3379],[-38.4368,-4.3839],[-38.3676,-4.4644],[-38.3604,-4.5015]]]},"properties":{"cd":"13692","nome":"CASCAVEL"}},{"type":"Feature","geometry":{"type":"Polygon","coordinates":[[[-40.0841,-6.3674],[-40.0611,-6.3666],[-40.0298,-6.3311],[-39.9237,-6.3418],[-39.8947,-6.368],[-39.8476,-6.352],[-39.7972,-6.2423],[-39.7893,-6.2065],[-39.7967,-6.1477],[-39.8925,-6.1139],[-39.8956,-6.1599],[-39.9261,-6.1958],[-39.9869,-6.2208],[-40.0163,-6.2237],[-40.0273,-6.2797],[-40.0475,-6.279],[-40.0711,-6.3553],[-40.0841,-6.3674]]]},"properties":{"cd":"13714","nome":"CATARINA"}},{"type":"Feature","geometry":{"type":"Polygon","coordinates":[[[-40.2934,-4.6004],[-40.3188,-4.6226],[-40.3377,-4.6654],[-40.3093,-4.691],[-40.3048,-4.7326],[-40.2731,-4.7701],[-40.2102,-4.7925],[-40.1841,-4.7845],[-40.1361,-4.8129],[-40.1199,-4.748],[-40.0595,-4.7168],[-40.1027,-4.6617],[-40.1078,-4.5918],[-40.0386,-4.5783],[-40.0087,-4.5231],[-40.0015,-4.4884],[-40.0226,-4.4619],[-40.0627,-4.4661],[-40.1126,-4.5107],[-40.1805,-4.5078],[-40.2078,-4.4652],[-40.2544,-4.4721],[-40.2679,-4.5082],[-40.2405,-4.5297],[-40.2328,-4.5629],[-40.2474,-4.6054],[-40.2934,-4.6004]]]},"properties":{"cd":"13447","nome":"CATUNDA"}},{"type":"Feature","geometry":{"type":"Polygon","coordinates":[[[-38.6379,-3.8014],[-38.6012,-3.7348],[-38.6222,-3.7029],[-38.5876,-3.6964],[-38.6524,-3.6822],[-38.6956,-3.6437],[-38.7483,-3.6169],[-38.8066,-3.5485],[-38.8319,-3.5708],[-38.8816,-3.6854],[-38.9184,-3.6667],[-38.9615,-3.712],[-38.9571,-3.7683],[-38.9785,-3.7787],[-38.9993,-3.8354],[-38.9882,-3.8693],[-38.9435,-3.9447],[-38.8716,-3.9687],[-38.8483,-3.9949],[-38.8116,-3.9619],[-38.7923,-3.967],[-38.6881,-3.8568],[-38.6379,-3.8014]]]},"properties":{"cd":"13730","nome":"CAUCAIA"}},{"type":"Feature","geometry":{"type":"Polygon","coordinates":[[[-39.1079,-6.7155],[-39.0682,-6.7054],[-39.0475,-6.6748],[-39.0027,-6.6577],[-38.9684,-6.6592],[-38.9247,-6.6112],[-38.9216,-6.5667],[-38.9178,-6.5496],[-38.9581,-6.527],[-39.0608,-6.4455],[-39.1229,-6.4661],[-39.1449,-6.4416],[-39.2051,-6.4632],[-39.2298,-6.4913],[-39.2355,-6.5235],[-39.2813,-6.5258],[-39.2984,-6.5617],[-39.2392,-6.5836],[-39.2099,-6.6078],[-39.1786,-6.6133],[-39.1727,-6.6729],[-39.1429,-6.6759],[-39.1298,-6.7104],[-39.1079,-6.7155]]]},"properties":{"cd":"13757","nome":"CEDRO"}},{"type":"Feature","geometry":{"type":"Polygon","coordinates":[[[-41.2609,-3.0538],[-41.2558,-3.0876],[-41.3111,-3.1358],[-41.3225,-3.1798],[-41.2374,-3.1795],[-41.1511,-3.1251],[-41.1718,-3.0859],[-41.1576,-3.071],[-41.1861,-3.0302],[-41.1935,-2.9984],[-41.2479,-2.9721],[-41.2715,-2.9707],[-41.2527,-3.0349],[-41.2609,-3.0538]]]},"properties":{"cd":"13773","nome":"CHAVAL"}},{"type":"Feature","geometry":{"type":"Polygon","coordinates":[[[-39.1298,-4.6281],[-39.18,-4.6553],[-39.2822,-4.6515],[-39.3049,-4.7074],[-39.3673,-4.7248],[-39.3463,-4.7476],[-39.3187,-4.7234],[-39.3034,-4.75],[-39.3432,-4.7719],[-39.3401,-4.7922],[-39.3316,-4.8353],[-39.3035,-4.8443],[-39.3001,-4.8802],[-39.2535,-4.9191],[-39.225,-4.9613],[-39.1984,-4.9659],[-39.1401,-4.8804],[-39.0655,-4.8119],[-39.0477,-4.7708],[-39.1041,-4.7618],[-39.0725,-4.7262],[-39.0406,-4.711],[-39.0349,-4.6678],[-38.9781,-4.6679],[-38.9941,-4.6466],[-39.0779,-4.639],[-39.1121,-4.6433],[-39.1298,-4.6281]]]},"properties":{"cd":"13463","nome":"CHORÓ"}},{"type":"Feature","geometry":{"type":"Polygon","coordinates":[[[-38.5705,-4.2355],[-38.5478,-4.2715],[-38.5484,-4.3231],[-38.5339,-4.3689],[-38.4434,-4.4091],[-38.4368,-4.3839],[-38.3854,-4.3379],[-38.3929,-4.2231],[-38.4655,-4.2454],[-38.5258,-4.2262],[-38.5705,-4.2355]]]},"properties":{"cd":"13161","nome":"CHOROZINHO"}},{"type":"Feature","geometry":{"type":"Polygon","coordinates":[[[-40.554,-3.5381],[-40.5589,-3.5304],[-40.6701,-3.5299],[-40.7619,-3.5051],[-40.8568,-3.5359],[-40.904,-3.5753],[-40.8909,-3.6679],[-40.8287,-3.6337],[-40.7663,-3.6484],[-40.7336,-3.689],[-40.7831,-3.7429],[-40.7796,-3.7862],[-40.7897,-3.8372],[-40.7662,-3.8631],[-40.7236,-3.8211],[-40.7154,-3.806],[-40.6557,-3.7973],[-40.6105,-3.65],[-40.5487,-3.6537],[-40.5877,-3.639],[-40.6071,-3.5958],[-40.554,-3.5381]]]},"properties":{"cd":"13811","nome":"COREAÚ"}},{"type":"Feature","geometry":{"type":"Polygon","coordinates":[[[-40.4142,-5.2284],[-40.3746,-5.1189],[-40.448,-5.0336],[-40.4958,-5.0365],[-40.5394,-5.0126],[-40.5666,-5.0198],[-40.5964,-4.9574],[-40.6356,-4.9247],[-40.6515,-4.9862],[-40.7155,-4.9463],[-40.8275,-4.9783],[-41.0506,-5.0262],[-41.1212,-5.0239],[-41.0819,-5.0876],[-41.0264,-5.1097],[-40.929,-5.1717],[-40.9117,-5.2667],[-40.9269,-5.297],[-40.9185,-5.3383],[-40.9361,-5.366],[-40.9115,-5.4074],[-40.937,-5.4387],[-40.9161,-5.4683],[-40.9293,-5.4931],[-40.9016,-5.4772],[-40.8627,-5.4933],[-40.8459,-5.4792],[-40.7745,-5.4932],[-40.7388,-5.4843],[-40.7221,-5.4634],[-40.6879,-5.4722],[-40.6458,-5.4267],[-40.5548,-5.4267],[-40.5244,-5.3898],[-40.4793,-5.2743],[-40.4142,-5.2284]]]},"properties":{"cd":"13838","nome":"CRATEÚS"}},{"type":"Feature","geometry":{"type":"Polygon","coordinates":[[[-39.3467,-7.2655],[-39.364,-7.2129],[-39.3667,-7.1641],[-39.3436,-7.1417],[-39.3402,-7.1086],[-39.3616,-7.0576],[-39.4548,-7.0565],[-39.4523,-7.0093],[-39.517,-7.0023],[-39.5812,-7.0233],[-39.5797,-7.0438],[-39.5995,-7.0801],[-39.5998,-7.2096],[-39.5992,-7.4287],[-39.5716,-7.4298],[-39.5459,-7.4839],[-39.5024,-7.4641],[-39.4607,-7.4712],[-39.4557,-7.5019],[-39.4847,-7.5328],[-39.4735,-7.5729],[-39.4476,-7.5722],[-39.4463,-7.3359],[-39.4011,-7.3072],[-39.3755,-7.3051],[-39.3467,-7.2655]]]},"properties":{"cd":"13854","nome":"CRATO"}},{"type":"Feature","geometry":{"type":"Polygon","coordinates":[[[-41.1776,-4.4677],[-41.1176,-4.4781],[-41.0613,-4.4738],[-41.0253,-4.4548],[-40.8888,-4.472],[-40.8263,-4.4588],[-40.7934,-4.4238],[-40.777,-4.3613],[-40.8025,-4.3452],[-40.8472,-4.3214],[-40.8703,-4.323],[-40.9274,-4.2895],[-41.0074,-4.273],[-41.1403,-4.37],[-41.1491,-4.3672],[-41.1776,-4.4677]]]},"properties":{"cd":"15881","nome":"CROATÁ"}},{"type":"Feature","geometry":{"type":"Polygon","coordinates":[[[-40.1702,-2.9441],[-40.151,-2.8842],[-40.1959,-2.8731],[-40.3244,-2.8613],[-40.3613,-2.8668],[-40.3719,-2.8124],[-40.455,-2.8034],[-40.452,-2.8898],[-40.4324,-2.901],[-40.433,-2.9413],[-40.4101,-2.951],[-40.3722,-2.965],[-40.3311,-2.964],[-40.3201,-2.9438],[-40.2639,-2.9398],[-40.2368,-2.9521],[-40.1702,-2.9441]]]},"properties":{"cd":"15890","nome":"CRUZ"}},{"type":"Feature","geometry":{"type":"Polygon","coordinates":[[[-39.1632,-5.7985],[-39.2098,-5.7883],[-39.2266,-5.7647],[-39.273,-5.7619],[-39.3278,-5.7828],[-39.3411,-5.8083],[-39.3416,-5.8514],[-39.3683,-5.9014],[-39.3542,-5.9517],[-39.3633,-5.9809],[-39.3205,-6.0069],[-39.3065,-5.9937],[-39.2124,-5.9917],[-39.1979,-5.9576],[-39.1699,-5.9602],[-39.1822,-5.8599],[-39.1632,-5.7985]]]},"properties":{"cd":"15989","nome":"DEPUTADO IRAPUAN PINHEIRO"}},{"type":"Feature","geometry":{"type":"Polygon","coordinates":[[[-38.4048,-6.0573],[-38.3818,-6.0535],[-38.3678,-6.0876],[-38.3396,-6.0777],[-38.3065,-6.087],[-38.2749,-6.0658],[-38.2526,-6.0431],[-38.2522,-6.0102],[-38.202,-5.9621],[-38.1635,-5.9389],[-38.1593,-5.9246],[-38.2591,-5.9205],[-38.2751,-5.8919],[-38.3336,-5.9193],[-38.4027,-5.9171],[-38.4118,-5.8985],[-38.3976,-5.9946],[-38.4221,-6.0121],[-38.4048,-6.0573]]]},"properties":{"cd":"13200","nome":"ERERÉ"}},{"type":"Feature","geometry":{"type":"Polygon","coordinates":[[[-38.4094,-3.8191],[-38.4429,-3.8015],[-38.4499,-3.8379],[-38.5019,-3.8882],[-38.5088,-3.9367],[-38.4486,-3.9235],[-38.4094,-3.8191]]]},"properties":{"cd":"13226","nome":"EUSÉBIO"}},{"type":"Feature","geometry":{"type":"Polygon","coordinates":[[[-39.395,-6.9224],[-39.4187,-6.8951],[-39.4832,-6.898],[-39.4784,-6.8467],[-39.5026,-6.8436],[-39.5169,-6.8101],[-39.5104,-6.7767],[-39.5565,-6.7766],[-39.6158,-6.7885],[-39.6531,-6.8207],[-39.6468,-6.8928],[-39.6075,-6.9174],[-39.6399,-6.9456],[-39.6335,-6.9688],[-39.6596,-7.0071],[-39.6806,-7.0161],[-39.6324,-7.0227],[-39.5797,-7.0438],[-39.5812,-7.0233],[-39.517,-7.0023],[-39.4523,-7.0093],[-39.4356,-6.9634],[-39.395,-6.9224]]]},"properties":{"cd":"13870","nome":"FARIAS BRITO"}},{"type":"Feature","geometry":{"type":"Polygon","coordinates":[[[-40.3049,-3.9332],[-40.1887,-3.9587],[-40.1382,-3.8966],[-40.1149,-3.7859],[-40.1261,-3.7009],[-40.2357,-3.6975],[-40.3051,-3.7487],[-40.3075,-3.7867],[-40.3405,-3.7833],[-40.3701,-3.8616],[-40.3196,-3.864],[-40.3049,-3.9332]]]},"properties":{"cd":"15911","nome":"FORQUILHA"}},{"type":"Feature","geometry":{"type":"Polygon","coordinates":[[[-38.5423,-3.8592],[-38.5019,-3.8882],[-38.4499,-3.8379],[-38.4429,-3.8015],[-38.4094,-3.8191],[-38.4018,-3.8238],[-38.4635,-3.7128],[-38.4959,-3.725],[-38.5876,-3.6964],[-38.6222,-3.7029],[-38.6012,-3.7348],[-38.6379,-3.8014],[-38.6147,-3.8239],[-38.5423,-3.8592]]]},"properties":{"cd":"13897","nome":"FORTALEZA"}},{"type":"Feature","geometry":{"type":"Polygon","coordinates":[[[-37.7695,-4.4264],[-37.7705,-4.4011],[-37.8451,-4.3817],[-37.8581,-4.4009],[-37.9049,-4.4139],[-37.9504,-4.4038],[-37.9763,-4.4324],[-37.9537,-4.4799],[-37.9634,-4.5303],[-37.8677,-4.5429],[-37.8241,-4.5041],[-37.7887,-4.5072],[-37.7705,-4.4754],[-37.7853,-4.443],[-37.7695,-4.4264]]]},"properties":{"cd":"13501","nome":"FORTIM"}},{"type":"Feature","geometry":{"type":"Polygon","coordinates":[[[-40.7796,-3.7862],[-40.7831,-3.7429],[-40.7336,-3.689],[-40.7663,-3.6484],[-40.8287,-3.6337],[-40.8909,-3.6679],[-40.8742,-3.7225],[-40.8953,-3.781],[-40.8439,-3.7887],[-40.7796,-3.7862]]]},"properties":{"cd":"13919","nome":"FRECHEIRINHA"}},{"type":"Feature","geometry":{"type":"Polygon","coordinates":[[[-39.3242,-4.0902],[-39.4442,-3.9692],[-39.4552,-4.0],[-39.4857,-4.0052],[-39.5028,-4.0013],[-39.5327,-4.0844],[-39.5471,-4.1101],[-39.5408,-4.16],[-39.5207,-4.1187],[-39.4922,-4.1116],[-39.4499,-4.1309],[-39.4464,-4.1037],[-39.407,-4.0959],[-39.3709,-4.1101],[-39.3242,-4.0902]]]},"properties":{"cd":"13935","nome":"GENERAL SAMPAIO"}},{"type":"Feature","geometry":{"type":"Polygon","coordinates":[[[-40.8103,-4.1185],[-40.7975,-4.1315],[-40.7432,-4.1228],[-40.7129,-4.1283],[-40.6826,-4.0576],[-40.7134,-4.0599],[-40.7309,-3.9673],[-40.7579,-3.9521],[-40.8227,-3.9563],[-40.8376,-3.9859],[-40.8348,-4.0516],[-40.8471,-4.1031],[-40.8103,-4.1185]]]},"properties":{"cd":"13064","nome":"GRAÇA"}},{"type":"Feature","geometry":{"type":"Polygon","coordinates":[[[-40.7279,-3.2339],[-40.7101,-3.2132],[-40.751,-3.0508],[-40.5744,-3.1357],[-40.5095,-3.1096],[-40.495,-3.062],[-40.5636,-3.0164],[-40.6918,-3.0085],[-40.8388,-3.0363],[-40.8799,-3.0108],[-40.9918,-3.0302],[-41.1015,-3.0938],[-41.1511,-3.1251],[-41.2374,-3.1795],[-41.3225,-3.1798],[-41.3959,-3.3041],[-41.4144,-3.3499],[-41.3996,-3.3846],[-41.3754,-3.3991],[-41.324,-3.3859],[-41.327,-3.4463],[-41.303,-3.4922],[-41.259,-3.4708],[-41.2206,-3.4384],[-41.1773,-3.3791],[-41.1262,-3.3585],[-41.0489,-3.3915],[-41.0035,-3.423],[-40.8867,-3.5204],[-40.8844,-3.4885],[-40.8491,-3.4172],[-40.8291,-3.3678],[-40.8528,-3.316],[-40.8216,-3.2962],[-40.8343,-3.2085],[-40.7279,-3.2339]]]},"properties":{"cd":"13951","nome":"GRANJA"}},{"type":"Feature","geometry":{"type":"Polygon","coordinates":[[[-39.1858,-6.8637],[-39.207,-6.8773],[-39.2663,-6.8817],[-39.3388,-6.9058],[-39.3466,-6.9363],[-39.2465,-6.9353],[-39.2356,-6.9283],[-39.1666,-6.9358],[-39.1665,-6.9059],[-39.1858,-6.8637]]]},"properties":{"cd":"13978","nome":"GRANJEIRO"}},{"type":"Feature","geometry":{"type":"Polygon","coordinates":[[[-40.4157,-3.8065],[-40.3946,-3.9672],[-40.3602,-4.0319],[-40.3375,-3.9701],[-40.3049,-3.9332],[-40.3196,-3.864],[-40.3701,-3.8616],[-40.3897,-3.7995],[-40.4157,-3.8065]]]},"properties":{"cd":"13994","nome":"GROAÍRAS"}},{"type":"Feature","geometry":{"type":"Polygon","coordinates":[[[-38.5664,-4.1223],[-38.6128,-4.104],[-38.6046,-4.0588],[-38.5747,-4.0542],[-38.6058,-4.0146],[-38.6677,-4.0184],[-38.6726,-4.0397],[-38.7485,-4.093],[-38.755,-4.1283],[-38.7888,-4.1422],[-38.7192,-4.1683],[-38.7175,-4.1872],[-38.6535,-4.1577],[-38.6188,-4.1635],[-38.5704,-4.1282],[-38.5664,-4.1223]]]},"properties":{"cd":"13242","nome":"GUAIÚBA"}},{"type":"Feature","geometry":{"type":"Polygon","coordinates":[[[-40.7129,-4.1283],[-40.7432,-4.1228],[-40.7975,-4.1315],[-40.8103,-4.1185],[-40.8337,-4.1182],[-40.8523,-4.1538],[-40.9009,-4.159],[-40.9754,-4.2302],[-41.0007,-4.1952],[-41.0741,-4.2005],[-41.0991,-4.1818],[-41.1359,-4.2335],[-41.1194,-4.3243],[-41.1491,-4.3672],[-41.1403,-4.37],[-41.0074,-4.273],[-40.9274,-4.2895],[-40.8703,-4.323],[-40.8472,-4.3214],[-40.8025,-4.3452],[-40.7883,-4.3195],[-40.8031,-4.2665],[-40.7779,-4.2352],[-40.7267,-4.2044],[-40.7111,-4.1684],[-40.7129,-4.1283]]]},"properties":{"cd":"14010","nome":"GUARACIABA DO NORTE"}},{"type":"Feature","geometry":{"type":"Polygon","coordinates":[[[-39.0032,-4.2611],[-38.9412,-4.3033],[-38.9336,-4.3231],[-38.8912,-4.277],[-38.9027,-4.2487],[-38.9411,-4.2358],[-38.9505,-4.182],[-39.0061,-4.2119],[-39.0032,-4.2611]]]},"properties":{"cd":"14036","nome":"GUARAMIRANGA"}},{"type":"Feature","geometry":{"type":"Polygon","coordinates":[[[-40.5879,-4.5576],[-40.5094,-4.5075],[-40.4609,-4.5283],[-40.3813,-4.5488],[-40.3459,-4.5807],[-40.3221,-4.5766],[-40.2934,-4.6004],[-40.2474,-4.6054],[-40.2328,-4.5629],[-40.2405,-4.5297],[-40.2679,-4.5082],[-40.2544,-4.4721],[-40.3199,-4.3556],[-40.3226,-4.3134],[-40.3024,-4.2686],[-40.4508,-4.2603],[-40.4781,-4.2923],[-40.5437,-4.3696],[-40.5653,-4.4194],[-40.5547,-4.44],[-40.5842,-4.4718],[-40.5989,-4.5308],[-40.5879,-4.5576]]]},"properties":{"cd":"14052","nome":"HIDROLÂNDIA"}},{"type":"Feature","geometry":{"type":"Polygon","coordinates":[[[-38.3819,-4.1451],[-38.3725,-4.0785],[-38.504,-4.0601],[-38.5359,-4.0414],[-38.536,-4.0792],[-38.5664,-4.1223],[-38.5704,-4.1282],[-38.3819,-4.1451]]]},"properties":{"cd":"13188","nome":"HORIZONTE"}},{"type":"Feature","geometry":{"type":"Polygon","coordinates":[[[-38.8744,-4.6795],[-38.8023,-4.741],[-38.8752,-4.8519],[-38.9186,-4.8519],[-38.8913,-4.8934],[-38.8827,-4.9352],[-38.7012,-4.9024],[-38.6475,-4.9376],[-38.6391,-4.9178],[-38.6668,-4.8694],[-38.6118,-4.8364],[-38.5807,-4.802],[-38.5724,-4.7649],[-38.5219,-4.7376],[-38.5289,-4.6806],[-38.5736,-4.6695],[-38.6309,-4.7005],[-38.6625,-4.6621],[-38.6892,-4.652],[-38.7004,-4.6123],[-38.7657,-4.6232],[-38.8162,-4.6724],[-38.8582,-4.667],[-38.8744,-4.6795]]]},"properties":{"cd":"14060","nome":"IBARETAMA"}},{"type":"Feature","geometry":{"type":"Polygon","coordinates":[[[-40.8376,-3.9859],[-40.8227,-3.9563],[-40.8297,-3.9206],[-40.7969,-3.9133],[-40.7774,-3.8837],[-40.8539,-3.8953],[-40.8726,-3.8688],[-40.9319,-3.9068],[-40.9783,-3.8929],[-41.1336,-3.942],[-41.1681,-3.9455],[-41.2118,-3.9724],[-41.2289,-3.9681],[-41.2492,-3.9899],[-41.2395,-4.0169],[-41.1829,-4.018],[-41.1657,-4.0],[-41.1176,-3.9872],[-41.0744,-3.9955],[-40.9643,-3.9821],[-40.8995,-3.9931],[-40.8565,-3.9752],[-40.8376,-3.9859]]]},"properties":{"cd":"14079","nome":"IBIAPINA"}},{"type":"Feature","geometry":{"type":"Polygon","coordinates":[[[-38.6251,-5.0666],[-38.4858,-5.0878],[-38.4982,-5.0581],[-38.481,-5.0231],[-38.5053,-4.9827],[-38.5074,-4.9563],[-38.4247,-4.9309],[-38.4381,-4.8755],[-38.5181,-4.8901],[-38.5924,-4.874],[-38.6313,-4.9025],[-38.6475,-4.9376],[-38.6474,-4.9799],[-38.6777,-5.0054],[-38.6767,-5.0283],[-38.6251,-5.0666]]]},"properties":{"cd":"15920","nome":"IBICUITINGA"}},{"type":"Feature","geometry":{"type":"Polygon","coordinates":[[[-37.5404,-4.6447],[-37.5572,-4.7225],[-37.504,-4.7919],[-37.3991,-4.7759],[-37.3557,-4.7942],[-37.3569,-4.8581],[-37.2527,-4.8314],[-37.295,-4.7302],[-37.3446,-4.6904],[-37.4076,-4.6751],[-37.4786,-4.6463],[-37.4947,-4.6287],[-37.5404,-4.6447]]]},"properties":{"cd":"15938","nome":"ICAPUÍ"}},{"type":"Feature","geometry":{"type":"Polygon","coordinates":[[[-38.8766,-6.5816],[-38.8546,-6.5969],[-38.7909,-6.6007],[-38.7755,-6.6123],[-38.7352,-6.5704],[-38.7021,-6.5556],[-38.6793,-6.5631],[-38.6268,-6.5316],[-38.6105,-6.5323],[-38.6123,-6.5132],[-38.5704,-6.4702],[-38.5384,-6.4213],[-38.5925,-6.3782],[-38.5625,-6.3557],[-38.5821,-6.3193],[-38.5704,-6.293],[-38.5197,-6.223],[-38.5512,-6.2343],[-38.6004,-6.178],[-38.6127,-6.1704],[-38.6791,-6.2054],[-38.7269,-6.1999],[-38.7358,-6.1647],[-38.7237,-6.1215],[-38.7548,-6.1114],[-38.8008,-6.1219],[-38.8267,-6.2179],[-38.8358,-6.2916],[-38.8783,-6.3274],[-38.9163,-6.3096],[-38.9357,-6.3403],[-38.96,-6.3351],[-38.9829,-6.379],[-39.0363,-6.376],[-39.0588,-6.3866],[-39.0818,-6.3643],[-39.1294,-6.4086],[-39.1449,-6.4416],[-39.1229,-6.4661],[-39.0608,-6.4455],[-38.9581,-6.527],[-38.9178,-6.5496],[-38.9216,-6.5667],[-38.8766,-6.5816]]]},"properties":{"cd":"14095","nome":"ICÓ"}},{"type":"Feature","geometry":{"type":"Polygon","coordinates":[[[-39.0563,-6.2588],[-39.0971,-6.2422],[-39.1347,-6.289],[-39.1631,-6.3047],[-39.217,-6.2892],[-39.2176,-6.2705],[-39.2787,-6.2792],[-39.2717,-6.2402],[-39.2771,-6.1717],[-39.3077,-6.1746],[-39.3568,-6.2257],[-39.3906,-6.222],[-39.4172,-6.261],[-39.4639,-6.2804],[-39.4595,-6.3248],[-39.4732,-6.3744],[-39.4079,-6.4087],[-39.3982,-6.4649],[-39.3481,-6.4853],[-39.3588,-6.5088],[-39.3405,-6.535],[-39.2813,-6.5258],[-39.2355,-6.5235],[-39.2298,-6.4913],[-39.2051,-6.4632],[-39.1449,-6.4416],[-39.1294,-6.4086],[-39.094,-6.3348],[-39.0528,-6.2962],[-39.0563,-6.2588]]]},"properties":{"cd":"14117","nome":"IGUATU"}},{"type":"Feature","geometry":{"type":"Polygon","coordinates":[[[-40.5653,-5.8407],[-40.5299,-5.8174],[-40.4867,-5.8349],[-40.411,-5.8106],[-40.3631,-5.7434],[-40.3218,-5.7422],[-40.2905,-5.7559],[-40.2112,-5.6909],[-40.2356,-5.6331],[-40.2287,-5.5918],[-40.1724,-5.5601],[-40.1245,-5.5541],[-40.1105,-5.5348],[-40.1063,-5.4531],[-40.0588,-5.3974],[-40.0547,-5.3626],[-40.0209,-5.328],[-40.0486,-5.279],[-40.0471,-5.2395],[-40.0236,-5.2074],[-40.0536,-5.1804],[-40.0967,-5.1595],[-40.16,-5.1648],[-40.1912,-5.1709],[-40.2292,-5.1528],[-40.304,-5.1685],[-40.3132,-5.1554],[-40.4142,-5.2284],[-40.4793,-5.2743],[-40.5244,-5.3898],[-40.5548,-5.4267],[-40.5698,-5.4392],[-40.6203,-5.538],[-40.6083,-5.5591],[-40.6367,-5.6138],[-40.6294,-5.6356],[-40.6532,-5.6743],[-40.6209,-5.7131],[-40.6169,-5.735],[-40.5702,-5.7575],[-40.5653,-5.8407]]]},"properties":{"cd":"14133","nome":"INDEPENDÊNCIA"}},{"type":"Feature","geometry":{"type":"Polygon","coordinates":[[[-40.6281,-4.7903],[-40.6655,-4.8443],[-40.6994,-4.8621],[-40.723,-4.8419],[-40.762,-4.8665],[-40.7694,-4.8385],[-40.8245,-4.8104],[-40.843,-4.785],[-40.8823,-4.7842],[-40.8757,-4.8545],[-40.9284,-4.8861],[-40.9419,-4.8825],[-40.9922,-4.915],[-41.0333,-4.9654],[-41.0506,-5.0262],[-40.8275,-4.9783],[-40.7155,-4.9463],[-40.6515,-4.9862],[-40.6356,-4.9247],[-40.5411,-4.9153],[-40.6281,-4.7903]]]},"properties":{"cd":"13340","nome":"IPAPORANGA"}},{"type":"Feature","geometry":{"type":"Polygon","coordinates":[[[-38.6524,-6.7571],[-38.7198,-6.7675],[-38.7486,-6.7555],[-38.7796,-6.7217],[-38.8466,-6.7092],[-38.8289,-6.7447],[-38.811,-6.8466],[-38.856,-6.859],[-38.8197,-6.8567],[-38.7742,-6.8684],[-38.7652,-6.9109],[-38.6754,-6.8618],[-38.6717,-6.8471],[-38.6519,-6.8117],[-38.6139,-6.7824],[-38.6524,-6.7571]]]},"properties":{"cd":"14150","nome":"IPAUMIRIM"}},{"type":"Feature","geometry":{"type":"Polygon","coordinates":[[[-40.7934,-4.4238],[-40.707,-4.4833],[-40.6953,-4.4507],[-40.6686,-4.4485],[-40.6422,-4.5107],[-40.6135,-4.552],[-40.5879,-4.5576],[-40.5989,-4.5308],[-40.5842,-4.4718],[-40.5547,-4.44],[-40.5653,-4.4194],[-40.5437,-4.3696],[-40.4781,-4.2923],[-40.5686,-4.3146],[-40.6488,-4.2941],[-40.6642,-4.3092],[-40.7037,-4.2834],[-40.687,-4.2097],[-40.7267,-4.2044],[-40.7779,-4.2352],[-40.8031,-4.2665],[-40.7883,-4.3195],[-40.8025,-4.3452],[-40.777,-4.3613],[-40.7934,-4.4238]]]},"properties":{"cd":"14176","nome":"IPU"}},{"type":"Feature","geometry":{"type":"Polygon","coordinates":[[[-40.6602,-4.6864],[-40.6267,-4.6212],[-40.5964,-4.6117],[-40.5879,-4.5576],[-40.6135,-4.552],[-40.6422,-4.5107],[-40.6686,-4.4485],[-40.6953,-4.4507],[-40.707,-4.4833],[-40.7934,-4.4238],[-40.8263,-4.4588],[-40.8888,-4.472],[-41.0253,-4.4548],[-41.0613,-4.4738],[-41.1176,-4.4781],[-41.1776,-4.4677],[-41.1908,-4.5155],[-41.2215,-4.5675],[-41.2398,-4.5736],[-41.1477,-4.5997],[-41.0989,-4.6024],[-40.9871,-4.66],[-40.9553,-4.7164],[-40.8722,-4.7123],[-40.8442,-4.7188],[-40.8064,-4.7056],[-40.7322,-4.7152],[-40.6698,-4.7051],[-40.6602,-4.6864]]]},"properties":{"cd":"14192","nome":"IPUEIRAS"}},{"type":"Feature","geometry":{"type":"Polygon","coordinates":[[[-38.4118,-5.8985],[-38.4027,-5.9171],[-38.3336,-5.9193],[-38.2751,-5.8919],[-38.2591,-5.9205],[-38.1593,-5.9246],[-38.1465,-5.892],[-38.1509,-5.8604],[-38.2267,-5.8337],[-38.2496,-5.7705],[-38.2486,-5.7308],[-38.2667,-5.6782],[-38.2488,-5.6455],[-38.2675,-5.6014],[-38.4329,-5.627],[-38.4587,-5.6785],[-38.4517,-5.7107],[-38.4795,-5.7431],[-38.4746,-5.779],[-38.4569,-5.8712],[-38.4118,-5.8985]]]},"properties":{"cd":"14214","nome":"IRACEMA"}},{"type":"Feature","geometry":{"type":"Polygon","coordinates":[[[-40.0149,-3.7121],[-40.0118,-3.7601],[-39.9763,-3.7767],[-39.9249,-3.9461],[-40.0069,-3.8991],[-39.9992,-3.9305],[-39.9223,-3.9919],[-39.9174,-4.0341],[-39.8722,-4.0462],[-39.8406,-4.1135],[-39.8185,-4.1179],[-39.7945,-4.1613],[-39.7739,-4.1737],[-39.7401,-4.1102],[-39.6649,-4.0817],[-39.6927,-4.0216],[-39.7076,-4.0183],[-39.7055,-3.9435],[-39.7178,-3.8775],[-39.6783,-3.8327],[-39.6395,-3.8221],[-39.6586,-3.7647],[-39.6855,-3.7465],[-39.7074,-3.6891],[-39.7017,-3.6177],[-39.7131,-3.655],[-39.7814,-3.642],[-39.8125,-3.6047],[-39.8312,-3.6033],[-39.8994,-3.6632],[-39.913,-3.7208],[-40.0149,-3.7121]]]},"properties":{"cd":"14230","nome":"IRAUÇUBA"}},{"type":"Feature","geometry":{"type":"Polygon","coordinates":[[[-37.6163,-4.718],[-37.7445,-4.7196],[-37.8009,-4.6973],[-37.8291,-4.6662],[-37.8447,-4.6832],[-37.9089,-4.6638],[-37.9505,-4.6618],[-37.9556,-4.7295],[-37.9338,-4.7636],[-37.8301,-4.7632],[-37.6163,-4.718]]]},"properties":{"cd":"14257","nome":"ITAIÇABA"}},{"type":"Feature","geometry":{"type":"Polygon","coordinates":[[[-38.5088,-3.9367],[-38.5019,-3.8882],[-38.5423,-3.8592],[-38.5737,-3.996],[-38.5747,-4.0542],[-38.6046,-4.0588],[-38.6128,-4.104],[-38.5664,-4.1223],[-38.536,-4.0792],[-38.5359,-4.0414],[-38.5186,-4.018],[-38.5088,-3.9367]]]},"properties":{"cd":"13480","nome":"ITAITINGA"}},{"type":"Feature","geometry":{"type":"Polygon","coordinates":[[[-39.6395,-3.8221],[-39.5884,-3.8255],[-39.5152,-3.7459],[-39.4897,-3.7602],[-39.4934,-3.8192],[-39.4765,-3.8576],[-39.4304,-3.8555],[-39.4148,-3.8299],[-39.4323,-3.7847],[-39.4426,-3.7464],[-39.4959,-3.7218],[-39.5146,-3.6693],[-39.5964,-3.6266],[-39.6778,-3.646],[-39.7017,-3.6177],[-39.7074,-3.6891],[-39.6855,-3.7465],[-39.6586,-3.7647],[-39.6395,-3.8221]]]},"properties":{"cd":"14273","nome":"ITAPAJÉ"}},{"type":"Feature","geometry":{"type":"Polygon","coordinates":[[[-39.5045,-3.5745],[-39.4537,-3.5851],[-39.4016,-3.5501],[-39.4263,-3.4713],[-39.4679,-3.4018],[-39.481,-3.396],[-39.5053,-3.3407],[-39.5046,-3.2975],[-39.5222,-3.2743],[-39.5041,-3.2411],[-39.5079,-3.2024],[-39.4758,-3.1973],[-39.4313,-3.208],[-39.3793,-3.1833],[-39.5506,-3.0792],[-39.5661,-3.1313],[-39.609,-3.1539],[-39.6261,-3.1489],[-39.6796,-3.1832],[-39.7035,-3.2458],[-39.7287,-3.2448],[-39.7029,-3.323],[-39.7381,-3.3573],[-39.7351,-3.4004],[-39.7836,-3.4644],[-39.7858,-3.4913],[-39.7528,-3.5609],[-39.7691,-3.5953],[-39.7131,-3.655],[-39.7017,-3.6177],[-39.6778,-3.646],[-39.5964,-3.6266],[-39.5453,-3.575],[-39.5045,-3.5745]]]},"properties":{"cd":"14290","nome":"ITAPIPOCA"}},{"type":"Feature","geometry":{"type":"Polygon","coordinates":[[[-38.9781,-4.6679],[-38.9441,-4.7404],[-38.9233,-4.7391],[-38.883,-4.7082],[-38.8744,-4.6795],[-38.8582,-4.667],[-38.8162,-4.6724],[-38.7657,-4.6232],[-38.8006,-4.5829],[-38.8392,-4.5787],[-38.8422,-4.5494],[-38.8733,-4.5263],[-38.9007,-4.5281],[-38.9499,-4.4877],[-38.9801,-4.4965],[-38.9988,-4.4808],[-39.0284,-4.4603],[-39.085,-4.4716],[-39.0841,-4.536],[-39.0656,-4.5611],[-39.1298,-4.6281],[-39.1121,-4.6433],[-39.0779,-4.639],[-38.9941,-4.6466],[-38.9781,-4.6679]]]},"properties":{"cd":"14311","nome":"ITAPIÚNA"}},{"type":"Feature","geometry":{"type":"Polygon","coordinates":[[[-39.721,-2.9969],[-39.7947,-2.9521],[-39.8619,-2.8999],[-39.9187,-2.8684],[-39.9424,-2.8664],[-39.9665,-2.9314],[-39.9741,-3.001],[-39.9836,-3.0176],[-39.973,-3.0741],[-39.9906,-3.0951],[-39.989,-3.1611],[-39.997,-3.199],[-39.9656,-3.2394],[-39.9075,-3.2736],[-39.8891,-3.224],[-39.9026,-3.2079],[-39.8687,-3.1697],[-39.868,-3.1246],[-39.709,-3.0145],[-39.721,-2.9969]]]},"properties":{"cd":"15954","nome":"ITAREMA"}},{"type":"Feature","geometry":{"type":"Polygon","coordinates":[[[-39.3713,-4.7173],[-39.401,-4.6866],[-39.4257,-4.6794],[-39.4215,-4.6451],[-39.4522,-4.6002],[-39.4937,-4.4817],[-39.5299,-4.4884],[-39.5625,-4.4707],[-39.6073,-4.5026],[-39.6427,-4.5069],[-39.7044,-4.5441],[-39.6866,-4.576],[-39.77,-4.6307],[-39.7175,-4.6778],[-39.7294,-4.6959],[-39.7262,-4.7495],[-39.6657,-4.7319],[-39.6289,-4.7314],[-39.5757,-4.7488],[-39.5101,-4.7247],[-39.3898,-4.7248],[-39.3713,-4.7173]]]},"properties":{"cd":"14338","nome":"ITATIRA"}},{"type":"Feature","geometry":{"type":"Polygon","coordinates":[[[-38.911,-5.4555],[-38.9038,-5.4699],[-38.9092,-5.5953],[-38.8808,-5.6557],[-38.8049,-5.7867],[-38.7521,-5.7665],[-38.6944,-5.7592],[-38.6762,-5.7457],[-38.6641,-5.6953],[-38.6214,-5.6569],[-38.6083,-5.6047],[-38.5827,-5.5698],[-38.5602,-5.5656],[-38.569,-5.521],[-38.5293,-5.4903],[-38.552,-5.4693],[-38.5171,-5.4426],[-38.5987,-5.3667],[-38.7153,-5.2683],[-38.6917,-5.2273],[-38.7082,-5.201],[-38.7756,-5.2044],[-38.8093,-5.2214],[-38.85,-5.2893],[-38.923,-5.3292],[-38.92,-5.4192],[-38.911,-5.4555]]]},"properties":{"cd":"14354","nome":"JAGUARETAMA"}},{"type":"Feature","geometry":{"type":"Polygon","coordinates":[[[-38.4329,-5.627],[-38.4375,-5.5453],[-38.4596,-5.5127],[-38.4301,-5.4679],[-38.4397,-5.4256],[-38.4129,-5.3743],[-38.5171,-5.4426],[-38.552,-5.4693],[-38.5293,-5.4903],[-38.569,-5.521],[-38.5602,-5.5656],[-38.5827,-5.5698],[-38.6083,-5.6047],[-38.6214,-5.6569],[-38.6641,-5.6953],[-38.6762,-5.7457],[-38.5611,-5.7452],[-38.4971,-5.7828],[-38.4746,-5.779],[-38.4795,-5.7431],[-38.4517,-5.7107],[-38.4587,-5.6785],[-38.4329,-5.627]]]},"properties":{"cd":"14370","nome":"JAGUARIBARA"}},{"type":"Feature","geometry":{"type":"Polygon","coordinates":[[[-38.6004,-6.178],[-38.5885,-6.1643],[-38.5403,-6.0422],[-38.5199,-6.0272],[-38.5163,-5.9875],[-38.4912,-5.9254],[-38.512,-5.8779],[-38.4826,-5.8497],[-38.4852,-5.7926],[-38.4746,-5.779],[-38.4971,-5.7828],[-38.5611,-5.7452],[-38.6762,-5.7457],[-38.6944,-5.7592],[-38.7521,-5.7665],[-38.8049,-5.7867],[-38.8371,-5.8128],[-38.84,-5.833],[-38.8791,-5.8661],[-38.9195,-5.9494],[-38.9382,-5.9564],[-38.9628,-6.0212],[-38.9761,-6.1028],[-38.9505,-6.0806],[-38.9068,-6.0887],[-38.9014,-6.1412],[-38.8207,-6.1366],[-38.8008,-6.1219],[-38.7548,-6.1114],[-38.7237,-6.1215],[-38.7358,-6.1647],[-38.7269,-6.1999],[-38.6791,-6.2054],[-38.6127,-6.1704],[-38.6004,-6.178]]]},"properties":{"cd":"14397","nome":"JAGUARIBE"}},{"type":"Feature","geometry":{"type":"Polygon","coordinates":[[[-37.8197,-4.9843],[-37.6771,-5.0523],[-37.6403,-4.9264],[-37.5887,-4.8083],[-37.6115,-4.7682],[-37.6163,-4.718],[-37.8301,-4.7632],[-37.9338,-4.7636],[-37.9004,-4.8209],[-37.8835,-4.8542],[-37.8867,-4.9054],[-37.8745,-4.9395],[-37.8197,-4.9843]]]},"properties":{"cd":"14419","nome":"JAGUARUANA"}},{"type":"Feature","geometry":{"type":"Polygon","coordinates":[[[-39.3696,-7.6193],[-39.3069,-7.6651],[-39.2664,-7.6648],[-39.2526,-7.7049],[-39.2083,-7.6895],[-39.1466,-7.7182],[-39.1178,-7.6835],[-39.1065,-7.6158],[-39.0726,-7.6262],[-39.1709,-7.5628],[-39.1949,-7.5036],[-39.2541,-7.4877],[-39.3718,-7.4581],[-39.3696,-7.6193]]]},"properties":{"cd":"14435","nome":"JARDIM"}},{"type":"Feature","geometry":{"type":"Polygon","coordinates":[[[-39.1178,-7.6835],[-39.0595,-7.7505],[-39.008,-7.7782],[-38.9704,-7.7773],[-38.9586,-7.8174],[-38.966,-7.8456],[-38.9621,-7.8442],[-38.9398,-7.7916],[-38.9396,-7.7588],[-38.8948,-7.7505],[-38.8919,-7.611],[-38.9681,-7.6066],[-39.0272,-7.6343],[-39.0726,-7.6262],[-39.1065,-7.6158],[-39.1178,-7.6835]]]},"properties":{"cd":"14451","nome":"JATI"}},{"type":"Feature","geometry":{"type":"Polygon","coordinates":[[[-40.5119,-2.9544],[-40.4098,-2.9663],[-40.4101,-2.951],[-40.433,-2.9413],[-40.4324,-2.901],[-40.452,-2.8898],[-40.455,-2.8034],[-40.498,-2.7843],[-40.5424,-2.8221],[-40.5901,-2.8464],[-40.5609,-2.8827],[-40.528,-2.8896],[-40.53,-2.9419],[-40.5119,-2.9544]]]},"properties":{"cd":"13005","nome":"JIJOCA DE JERICOACOARA"}},{"type":"Feature","geometry":{"type":"Polygon","coordinates":[[[-39.1934,-7.1506],[-39.2811,-7.0927],[-39.2928,-7.1103],[-39.3402,-7.1086],[-39.3436,-7.1417],[-39.3667,-7.1641],[-39.364,-7.2129],[-39.3467,-7.2655],[-39.2577,-7.2631],[-39.2158,-7.2214],[-39.1934,-7.1506]]]},"properties":{"cd":"14478","nome":"JUAZEIRO DO NORTE"}},{"type":"Feature","geometry":{"type":"Polygon","coordinates":[[[-39.3982,-6.4649],[-39.4079,-6.4087],[-39.4732,-6.3744],[-39.4595,-6.3248],[-39.5228,-6.3394],[-39.5601,-6.3327],[-39.594,-6.3097],[-39.652,-6.3374],[-39.7089,-6.3404],[-39.7271,-6.3705],[-39.776,-6.4108],[-39.7718,-6.4597],[-39.7248,-6.4964],[-39.7504,-6.5209],[-39.7288,-6.5434],[-39.7728,-6.6065],[-39.7366,-6.6127],[-39.7374,-6.6332],[-39.6778,-6.6228],[-39.5363,-6.5576],[-39.5118,-6.5252],[-39.4619,-6.5101],[-39.4207,-6.4627],[-39.3982,-6.4649]]]},"properties":{"cd":"14494","nome":"JUCÁS"}},{"type":"Feature","geometry":{"type":"Polygon","coordinates":[[[-38.9216,-6.5667],[-38.9247,-6.6112],[-38.9684,-6.6592],[-39.0027,-6.6577],[-39.0475,-6.6748],[-39.0682,-6.7054],[-39.1079,-6.7155],[-39.1248,-6.721],[-39.1816,-6.8273],[-39.1858,-6.8637],[-39.1665,-6.9059],[-39.1666,-6.9358],[-39.116,-6.9428],[-39.107,-6.9635],[-39.0868,-6.9373],[-39.0154,-6.8784],[-38.9649,-6.862],[-38.856,-6.859],[-38.811,-6.8466],[-38.8289,-6.7447],[-38.8466,-6.7092],[-38.8437,-6.6673],[-38.8735,-6.6118],[-38.8766,-6.5816],[-38.9216,-6.5667]]]},"properties":{"cd":"14516","nome":"LAVRAS DA MANGABEIRA"}},{"type":"Feature","geometry":{"type":"Polygon","coordinates":[[[-38.2334,-5.217],[-38.2082,-5.1937],[-38.1344,-5.2134],[-38.0716,-5.1821],[-37.9939,-5.2456],[-37.9675,-5.2544],[-37.9302,-5.2972],[-37.7869,-5.2972],[-37.7848,-5.2402],[-37.8238,-5.2272],[-37.9262,-5.1733],[-37.9698,-5.1025],[-38.0029,-5.081],[-38.0609,-5.0805],[-38.1882,-4.9754],[-38.2133,-4.9742],[-38.2142,-5.0457],[-38.2486,-5.1812],[-38.2381,-5.2109],[-38.2334,-5.217]]]},"properties":{"cd":"14532","nome":"LIMOEIRO DO NORTE"}},{"type":"Feature","geometry":{"type":"Polygon","coordinates":[[[-39.6288,-5.043],[-39.5023,-5.0522],[-39.4726,-5.0087],[-39.4807,-4.9767],[-39.3945,-4.9274],[-39.3744,-4.9732],[-39.3483,-4.9603],[-39.366,-4.9331],[-39.3468,-4.8962],[-39.365,-4.8465],[-39.3401,-4.7922],[-39.3432,-4.7719],[-39.3034,-4.75],[-39.3187,-4.7234],[-39.3463,-4.7476],[-39.3673,-4.7248],[-39.3713,-4.7173],[-39.3898,-4.7248],[-39.5101,-4.7247],[-39.5757,-4.7488],[-39.6289,-4.7314],[-39.6657,-4.7319],[-39.7262,-4.7495],[-39.7226,-4.7776],[-39.6775,-4.7893],[-39.6629,-4.808],[-39.6502,-4.8703],[-39.6186,-4.9081],[-39.5975,-4.9987],[-39.6288,-5.043]]]},"properties":{"cd":"13021","nome":"MADALENA"}},{"type":"Feature","geometry":{"type":"Polygon","coordinates":[[[-38.6401,-3.9685],[-38.6116,-3.9218],[-38.6128,-3.8844],[-38.5423,-3.8592],[-38.6147,-3.8239],[-38.6379,-3.8014],[-38.6881,-3.8568],[-38.6518,-3.8731],[-38.6586,-3.954],[-38.6401,-3.9685]]]},"properties":{"cd":"15857","nome":"MARACANAÚ"}},{"type":"Feature","geometry":{"type":"Polygon","coordinates":[[[-38.6881,-3.8568],[-38.7923,-3.967],[-38.8116,-3.9619],[-38.8483,-3.9949],[-38.8716,-3.9687],[-38.9435,-3.9447],[-39.0035,-3.9918],[-38.9842,-4.0444],[-38.9436,-4.1036],[-38.8621,-4.1122],[-38.8345,-4.0726],[-38.7847,-4.0943],[-38.7485,-4.093],[-38.6726,-4.0397],[-38.6677,-4.0184],[-38.6401,-3.9685],[-38.6586,-3.954],[-38.6518,-3.8731],[-38.6881,-3.8568]]]},"properties":{"cd":"14559","nome":"MARANGUAPE"}},{"type":"Feature","geometry":{"type":"Polygon","coordinates":[[[-40.0838,-3.1154],[-40.1396,-3.0733],[-40.1476,-3.1069],[-40.2357,-3.1683],[-40.2684,-3.1504],[-40.2969,-3.2046],[-40.32,-3.1929],[-40.3528,-3.2027],[-40.3646,-3.1548],[-40.3821,-3.1341],[-40.4206,-3.1218],[-40.495,-3.062],[-40.5095,-3.1096],[-40.4537,-3.1503],[-40.4502,-3.1806],[-40.3858,-3.2729],[-40.3407,-3.2901],[-40.2744,-3.3056],[-40.2788,-3.2638],[-40.2375,-3.2861],[-40.1208,-3.1996],[-40.096,-3.1972],[-40.0026,-3.22],[-40.0838,-3.1154]]]},"properties":{"cd":"14575","nome":"MARCO"}},{"type":"Feature","geometry":{"type":"Polygon","coordinates":[[[-40.7279,-3.2339],[-40.6691,-3.2476],[-40.5325,-3.2404],[-40.5475,-3.1879],[-40.5754,-3.1662],[-40.5744,-3.1357],[-40.751,-3.0508],[-40.7101,-3.2132],[-40.7279,-3.2339]]]},"properties":{"cd":"14591","nome":"MARTINÓPOLE"}},{"type":"Feature","geometry":{"type":"Polygon","coordinates":[[[-40.2693,-3.5729],[-40.2565,-3.5595],[-40.2525,-3.5021],[-40.2711,-3.4821],[-40.3073,-3.4099],[-40.3365,-3.4042],[-40.342,-3.3509],[-40.3552,-3.3715],[-40.3927,-3.3821],[-40.4225,-3.3697],[-40.5156,-3.393],[-40.5373,-3.4484],[-40.5574,-3.4834],[-40.5408,-3.5223],[-40.5207,-3.5141],[-40.4766,-3.4952],[-40.4637,-3.5195],[-40.4126,-3.5388],[-40.4155,-3.5673],[-40.3619,-3.6156],[-40.3105,-3.6218],[-40.2967,-3.5908],[-40.2693,-3.5729]]]},"properties":{"cd":"14613","nome":"MASSAPÊ"}},{"type":"Feature","geometry":{"type":"Polygon","coordinates":[[[-38.683,-7.5787],[-38.653,-7.5526],[-38.6449,-7.46],[-38.6033,-7.4576],[-38.5956,-7.4156],[-38.5494,-7.335],[-38.5348,-7.2905],[-38.5544,-7.2519],[-38.5928,-7.2476],[-38.62,-7.2201],[-38.7384,-7.2376],[-38.783,-7.2268],[-38.8603,-7.3545],[-38.8824,-7.4571],[-38.7759,-7.6042],[-38.7176,-7.6269],[-38.7151,-7.6219],[-38.7037,-7.581],[-38.683,-7.5787]]]},"properties":{"cd":"14630","nome":"MAURITI"}},{"type":"Feature","geometry":{"type":"Polygon","coordinates":[[[-40.499,-3.6298],[-40.4065,-3.6453],[-40.3998,-3.6271],[-40.3619,-3.6156],[-40.4155,-3.5673],[-40.4126,-3.5388],[-40.4637,-3.5195],[-40.4766,-3.4952],[-40.5207,-3.5141],[-40.5218,-3.545],[-40.4985,-3.5776],[-40.499,-3.6298]]]},"properties":{"cd":"14656","nome":"MERUOCA"}},{"type":"Feature","geometry":{"type":"Polygon","coordinates":[[[-38.9699,-7.4273],[-38.9405,-7.428],[-38.8824,-7.4571],[-38.8603,-7.3545],[-38.783,-7.2268],[-38.7982,-7.2192],[-38.8418,-7.2398],[-38.9145,-7.243],[-38.9477,-7.1419],[-38.909,-7.0827],[-38.9579,-7.0817],[-39.0255,-7.1501],[-39.0253,-7.1944],[-39.0862,-7.2345],[-39.0918,-7.2597],[-39.0495,-7.2916],[-39.0005,-7.3085],[-38.962,-7.3959],[-38.9699,-7.4273]]]},"properties":{"cd":"14672","nome":"MILAGRES"}},{"type":"Feature","geometry":{"type":"Polygon","coordinates":[[[-39.273,-5.7619],[-39.2266,-5.7647],[-39.2098,-5.7883],[-39.1632,-5.7985],[-39.027,-5.4899],[-39.0603,-5.5111],[-39.1163,-5.5071],[-39.1912,-5.5251],[-39.2468,-5.5925],[-39.2692,-5.6336],[-39.2607,-5.7157],[-39.273,-5.7619]]]},"properties":{"cd":"15970","nome":"MILHÃ"}},{"type":"Feature","geometry":{"type":"Polygon","coordinates":[[[-40.0149,-3.7121],[-39.913,-3.7208],[-39.8994,-3.6632],[-39.8312,-3.6033],[-39.8125,-3.6047],[-39.7814,-3.642],[-39.7131,-3.655],[-39.7691,-3.5953],[-39.7528,-3.5609],[-39.7858,-3.4913],[-39.7836,-3.4644],[-39.951,-3.4331],[-40.0276,-3.4373],[-40.0485,-3.5316],[-40.0427,-3.5648],[-40.07,-3.5939],[-40.0443,-3.5811],[-39.9841,-3.5765],[-39.9933,-3.6263],[-40.0094,-3.6479],[-40.0149,-3.7121]]]},"properties":{"cd":"14680","nome":"MIRAÍMA"}},{"type":"Feature","geometry":{"type":"Polygon","coordinates":[[[-39.1934,-7.1506],[-39.2158,-7.2214],[-39.2577,-7.2631],[-39.2067,-7.3016],[-39.2409,-7.3629],[-39.2229,-7.3973],[-39.2544,-7.4477],[-39.2541,-7.4877],[-39.1949,-7.5036],[-39.1872,-7.4739],[-39.1535,-7.4509],[-39.0939,-7.4639],[-39.0782,-7.422],[-39.1021,-7.3404],[-39.0812,-7.3012],[-39.0918,-7.2597],[-39.0862,-7.2345],[-39.0253,-7.1944],[-39.0255,-7.1501],[-39.0501,-7.1383],[-39.0783,-7.1563],[-39.1151,-7.1553],[-39.1358,-7.1308],[-39.1934,-7.1506]]]},"properties":{"cd":"14699","nome":"MISSÃO VELHA"}},{"type":"Feature","geometry":{"type":"Polygon","coordinates":[[[-39.4753,-5.7011],[-39.4393,-5.6657],[-39.4828,-5.6364],[-39.5456,-5.613],[-39.587,-5.6063],[-39.6018,-5.625],[-39.6322,-5.6065],[-39.6754,-5.6215],[-39.6913,-5.5999],[-39.7696,-5.5879],[-39.8181,-5.568],[-39.852,-5.6262],[-39.9317,-5.6331],[-40.012,-5.6244],[-40.0475,-5.674],[-40.0224,-5.7101],[-40.0062,-5.7202],[-40.0064,-5.777],[-39.9753,-5.8218],[-39.9239,-5.839],[-39.9409,-5.8794],[-39.9134,-5.8991],[-39.8715,-5.8836],[-39.8708,-5.9105],[-39.8337,-5.9411],[-39.8363,-5.9771],[-39.8557,-5.9872],[-39.9091,-6.058],[-39.9599,-6.0855],[-39.9564,-6.1003],[-39.9179,-6.0822],[-39.8886,-6.0974],[-39.8255,-6.0417],[-39.8136,-6.0127],[-39.7029,-6.0053],[-39.6747,-6.0222],[-39.6523,-5.9664],[-39.6113,-5.9819],[-39.5658,-5.9626],[-39.5463,-5.8624],[-39.5566,-5.8493],[-39.5032,-5.73],[-39.4753,-5.7011]]]},"properties":{"cd":"14710","nome":"MOMBAÇA"}},{"type":"Feature","geometry":{"type":"Polygon","coordinates":[[[-40.16,-5.1648],[-39.9976,-5.0845],[-39.9578,-5.0254],[-39.9685,-4.9476],[-39.9566,-4.9254],[-39.9012,-4.9047],[-39.8947,-4.8854],[-39.9457,-4.8393],[-39.9493,-4.8175],[-39.9286,-4.7745],[-39.9262,-4.7349],[-40.0595,-4.7168],[-40.1199,-4.748],[-40.1361,-4.8129],[-40.1101,-4.8505],[-40.114,-4.8828],[-40.1957,-4.9067],[-40.1686,-4.9349],[-40.1658,-4.9643],[-40.1395,-4.9708],[-40.1057,-5.024],[-40.1496,-5.0342],[-40.1374,-5.0726],[-40.1351,-5.1292],[-40.16,-5.1648]]]},"properties":{"cd":"14737","nome":"MONSENHOR TABOSA"}},{"type":"Feature","geometry":{"type":"Polygon","coordinates":[[[-38.2381,-5.2109],[-38.2486,-5.1812],[-38.2142,-5.0457],[-38.2133,-4.9742],[-38.2615,-4.8838],[-38.3101,-4.8576],[-38.3576,-4.8474],[-38.4153,-4.8633],[-38.4363,-4.8341],[-38.4682,-4.8165],[-38.3746,-4.7294],[-38.3303,-4.675],[-38.3032,-4.6807],[-38.2146,-4.5902],[-38.2349,-4.5742],[-38.3604,-4.5015],[-38.3806,-4.5784],[-38.4083,-4.5981],[-38.4343,-4.6384],[-38.4579,-4.6534],[-38.4988,-4.6516],[-38.5289,-4.6806],[-38.5219,-4.7376],[-38.5724,-4.7649],[-38.5807,-4.802],[-38.6118,-4.8364],[-38.6668,-4.8694],[-38.6391,-4.9178],[-38.6475,-4.9376],[-38.6313,-4.9025],[-38.5924,-4.874],[-38.5181,-4.8901],[-38.4381,-4.8755],[-38.4247,-4.9309],[-38.5074,-4.9563],[-38.5053,-4.9827],[-38.481,-5.0231],[-38.4982,-5.0581],[-38.4858,-5.0878],[-38.6251,-5.0666],[-38.6182,-5.1189],[-38.6124,-5.1505],[-38.6773,-5.2273],[-38.6917,-5.2273],[-38.7153,-5.2683],[-38.5987,-5.3667],[-38.5171,-5.4426],[-38.4129,-5.3743],[-38.3944,-5.363],[-38.3626,-5.3494],[-38.328,-5.3145],[-38.3293,-5.2749],[-38.2381,-5.2109]]]},"properties":{"cd":"14753","nome":"MORADA NOVA"}},{"type":"Feature","geometry":{"type":"Polygon","coordinates":[[[-40.8568,-3.5359],[-40.7619,-3.5051],[-40.6701,-3.5299],[-40.5589,-3.5304],[-40.554,-3.5381],[-40.5408,-3.5223],[-40.5574,-3.4834],[-40.5373,-3.4484],[-40.5703,-3.4383],[-40.5617,-3.4065],[-40.6051,-3.4114],[-40.6372,-3.3573],[-40.6644,-3.3614],[-40.6952,-3.4014],[-40.7229,-3.4044],[-40.7372,-3.4381],[-40.7716,-3.4225],[-40.8491,-3.4172],[-40.8217,-3.4708],[-40.8568,-3.5359]]]},"properties":{"cd":"14770","nome":"MORAÚJO"}},{"type":"Feature","geometry":{"type":"Polygon","coordinates":[[[-40.3412,-3.3162],[-40.2011,-3.3077],[-40.1852,-3.3191],[-40.1462,-3.3036],[-40.107,-3.3188],[-40.0922,-3.3545],[-40.0701,-3.3672],[-39.9872,-3.3655],[-39.9392,-3.3347],[-39.9342,-3.3157],[-40.0026,-3.22],[-40.096,-3.1972],[-40.1208,-3.1996],[-40.2375,-3.2861],[-40.2788,-3.2638],[-40.2744,-3.3056],[-40.3407,-3.2901],[-40.3412,-3.3162]]]},"properties":{"cd":"14796","nome":"MORRINHOS"}},{"type":"Feature","geometry":{"type":"Polygon","coordinates":[[[-40.8227,-3.9563],[-40.7579,-3.9521],[-40.7309,-3.9673],[-40.6769,-3.954],[-40.6656,-3.9391],[-40.7131,-3.9181],[-40.7132,-3.8869],[-40.6792,-3.8418],[-40.7236,-3.8211],[-40.7662,-3.8631],[-40.7897,-3.8372],[-40.8259,-3.8686],[-40.8726,-3.8688],[-40.8539,-3.8953],[-40.7774,-3.8837],[-40.7969,-3.9133],[-40.8297,-3.9206],[-40.8227,-3.9563]]]},"properties":{"cd":"14818","nome":"MUCAMBO"}},{"type":"Feature","geometry":{"type":"Polygon","coordinates":[[[-39.0032,-4.2611],[-39.0456,-4.3001],[-39.0259,-4.3192],[-39.0536,-4.3521],[-39.0137,-4.3736],[-38.9704,-4.3682],[-38.9592,-4.3569],[-38.9336,-4.3231],[-38.9412,-4.3033],[-39.0032,-4.2611]]]},"properties":{"cd":"14834","nome":"MULUNGU"}},{"type":"Feature","geometry":{"type":"Polygon","coordinates":[[[-39.7475,-7.0225],[-39.7574,-7.045],[-39.7421,-7.0931],[-39.6932,-7.1704],[-39.5998,-7.2096],[-39.5995,-7.0801],[-39.5797,-7.0438],[-39.6324,-7.0227],[-39.6806,-7.0161],[-39.7166,-7.0022],[-39.7475,-7.0225]]]},"properties":{"cd":"14850","nome":"NOVA OLINDA"}},{"type":"Feature","geometry":{"type":"Polygon","coordinates":[[[-40.5411,-4.9153],[-40.54,-4.8429],[-40.5243,-4.8479],[-40.4462,-4.7325],[-40.3813,-4.5488],[-40.4609,-4.5283],[-40.5094,-4.5075],[-40.5879,-4.5576],[-40.5964,-4.6117],[-40.6267,-4.6212],[-40.6602,-4.6864],[-40.6471,-4.7471],[-40.6281,-4.7903],[-40.5411,-4.9153]]]},"properties":{"cd":"14877","nome":"NOVA RUSSAS"}},{"type":"Feature","geometry":{"type":"Polygon","coordinates":[[[-40.5548,-5.4267],[-40.6458,-5.4267],[-40.6879,-5.4722],[-40.7221,-5.4634],[-40.7388,-5.4843],[-40.7745,-5.4932],[-40.8459,-5.4792],[-40.8627,-5.4933],[-40.9016,-5.4772],[-40.9293,-5.4931],[-40.9324,-5.5489],[-40.9023,-5.608],[-40.9078,-5.6423],[-40.9388,-5.6733],[-40.914,-5.725],[-40.9098,-5.7657],[-40.8438,-5.7706],[-40.7918,-5.7334],[-40.7497,-5.7197],[-40.695,-5.6434],[-40.669,-5.6661],[-40.6541,-5.6997],[-40.6169,-5.735],[-40.6209,-5.7131],[-40.6532,-5.6743],[-40.6294,-5.6356],[-40.6367,-5.6138],[-40.6083,-5.5591],[-40.6203,-5.538],[-40.5698,-5.4392],[-40.5548,-5.4267]]]},"properties":{"cd":"14893","nome":"NOVO ORIENTE"}},{"type":"Feature","geometry":{"type":"Polygon","coordinates":[[[-38.5289,-4.6806],[-38.4988,-4.6516],[-38.4579,-4.6534],[-38.4343,-4.6384],[-38.4083,-4.5981],[-38.3806,-4.5784],[-38.3604,-4.5015],[-38.3676,-4.4644],[-38.4368,-4.3839],[-38.4434,-4.4091],[-38.5339,-4.3689],[-38.5676,-4.4133],[-38.6019,-4.4205],[-38.6308,-4.451],[-38.6357,-4.4859],[-38.6217,-4.5356],[-38.6495,-4.5557],[-38.6126,-4.6526],[-38.5736,-4.6695],[-38.5289,-4.6806]]]},"properties":{"cd":"13307","nome":"OCARA"}},{"type":"Feature","geometry":{"type":"Polygon","coordinates":[[[-39.1294,-6.4086],[-39.0818,-6.3643],[-39.0588,-6.3866],[-39.0363,-6.376],[-38.9829,-6.379],[-38.96,-6.3351],[-38.9357,-6.3403],[-38.9163,-6.3096],[-38.8783,-6.3274],[-38.8358,-6.2916],[-38.8267,-6.2179],[-38.8008,-6.1219],[-38.8207,-6.1366],[-38.9014,-6.1412],[-38.9068,-6.0887],[-38.9505,-6.0806],[-38.9761,-6.1028],[-38.9688,-6.1224],[-38.9862,-6.1566],[-39.0032,-6.2202],[-39.0563,-6.2588],[-39.0528,-6.2962],[-39.094,-6.3348],[-39.1294,-6.4086]]]},"properties":{"cd":"14915","nome":"ORÓS"}},{"type":"Feature","geometry":{"type":"Polygon","coordinates":[[[-38.5705,-4.2355],[-38.5258,-4.2262],[-38.4655,-4.2454],[-38.3929,-4.2231],[-38.3819,-4.1451],[-38.5704,-4.1282],[-38.6188,-4.1635],[-38.6144,-4.1829],[-38.5705,-4.2355]]]},"properties":{"cd":"14931","nome":"PACAJUS"}},{"type":"Feature","geometry":{"type":"Polygon","coordinates":[[[-38.6677,-4.0184],[-38.6058,-4.0146],[-38.5747,-4.0542],[-38.5737,-3.996],[-38.5423,-3.8592],[-38.6128,-3.8844],[-38.6116,-3.9218],[-38.6401,-3.9685],[-38.6677,-4.0184]]]},"properties":{"cd":"14958","nome":"PACATUBA"}},{"type":"Feature","geometry":{"type":"Polygon","coordinates":[[[-38.9505,-4.182],[-38.9411,-4.2358],[-38.9027,-4.2487],[-38.8912,-4.277],[-38.8488,-4.2298],[-38.8545,-4.1771],[-38.8947,-4.1474],[-38.9303,-4.1384],[-38.9547,-4.137],[-38.9505,-4.182]]]},"properties":{"cd":"14974","nome":"PACOTI"}},{"type":"Feature","geometry":{"type":"Polygon","coordinates":[[[-40.7309,-3.9673],[-40.7134,-4.0599],[-40.6826,-4.0576],[-40.6392,-4.0158],[-40.6671,-3.9859],[-40.6656,-3.9391],[-40.6769,-3.954],[-40.7309,-3.9673]]]},"properties":{"cd":"14990","nome":"PACUJÁ"}},{"type":"Feature","geometry":{"type":"Polygon","coordinates":[[[-37.9338,-4.7636],[-37.9556,-4.7295],[-37.9505,-4.6618],[-37.9932,-4.6607],[-37.9735,-4.6155],[-37.9864,-4.5836],[-38.0007,-4.5977],[-38.0836,-4.5876],[-38.1238,-4.6198],[-38.1821,-4.6227],[-38.147,-4.6645],[-38.095,-4.7038],[-38.0487,-4.7781],[-38.0601,-4.8127],[-38.0423,-4.8447],[-37.9004,-4.8209],[-37.9338,-4.7636]]]},"properties":{"cd":"15016","nome":"PALHANO"}},{"type":"Feature","geometry":{"type":"Polygon","coordinates":[[[-38.8545,-4.1771],[-38.8033,-4.1614],[-38.7888,-4.1422],[-38.755,-4.1283],[-38.7485,-4.093],[-38.7847,-4.0943],[-38.8345,-4.0726],[-38.8621,-4.1122],[-38.9436,-4.1036],[-38.9303,-4.1384],[-38.8947,-4.1474],[-38.8545,-4.1771]]]},"properties":{"cd":"15032","nome":"PALMÁCIA"}},{"type":"Feature","geometry":{"type":"Polygon","coordinates":[[[-39.1665,-3.523],[-39.1005,-3.5322],[-39.0496,-3.5541],[-38.9963,-3.5541],[-38.9578,-3.5419],[-38.9681,-3.5112],[-38.9321,-3.4654],[-38.9738,-3.4111],[-39.0074,-3.3971],[-39.0646,-3.4067],[-39.11,-3.4249],[-39.1188,-3.4854],[-39.1411,-3.4803],[-39.1665,-3.523]]]},"properties":{"cd":"15059","nome":"PARACURU"}},{"type":"Feature","geometry":{"type":"Polygon","coordinates":[[[-39.1665,-3.523],[-39.1411,-3.4803],[-39.1188,-3.4854],[-39.11,-3.4249],[-39.0646,-3.4067],[-39.1127,-3.3471],[-39.1648,-3.3262],[-39.2058,-3.3563],[-39.238,-3.3596],[-39.2536,-3.3966],[-39.2625,-3.4905],[-39.1665,-3.523]]]},"properties":{"cd":"15997","nome":"PARAIPABA"}},{"type":"Feature","geometry":{"type":"Polygon","coordinates":[[[-40.4052,-6.3125],[-40.4352,-6.3345],[-40.5275,-6.3483],[-40.6106,-6.3378],[-40.5661,-6.2918],[-40.4994,-6.2506],[-40.4881,-6.2033],[-40.5316,-6.16],[-40.5086,-6.1445],[-40.4939,-6.0836],[-40.4661,-6.0172],[-40.4927,-5.9818],[-40.5432,-6.0041],[-40.6115,-5.9901],[-40.6884,-6.0111],[-40.7141,-6.0395],[-40.7379,-6.0582],[-40.748,-6.0908],[-40.7905,-6.0887],[-40.8069,-6.105],[-40.8577,-6.1054],[-40.8522,-6.2242],[-40.7866,-6.3054],[-40.7791,-6.3413],[-40.8052,-6.3931],[-40.7899,-6.5006],[-40.7877,-6.5238],[-40.7543,-6.5547],[-40.7364,-6.6003],[-40.61,-6.6031],[-40.5784,-6.5488],[-40.4531,-6.524],[-40.4424,-6.4899],[-40.3916,-6.4748],[-40.3662,-6.4302],[-40.3274,-6.4019],[-40.4052,-6.3125]]]},"properties":{"cd":"15075","nome":"PARAMBU"}},{"type":"Feature","geometry":{"type":"Polygon","coordinates":[[[-39.2037,-4.0468],[-39.2276,-4.0727],[-39.2701,-4.0862],[-39.3242,-4.0902],[-39.3709,-4.1101],[-39.407,-4.0959],[-39.4464,-4.1037],[-39.4499,-4.1309],[-39.4922,-4.1116],[-39.5207,-4.1187],[-39.5408,-4.16],[-39.5701,-4.2192],[-39.5067,-4.2425],[-39.4916,-4.2906],[-39.3345,-4.194],[-39.3092,-4.1782],[-39.2049,-4.1759],[-39.2064,-4.1312],[-39.1606,-4.1267],[-39.1553,-4.0982],[-39.2037,-4.0468]]]},"properties":{"cd":"15091","nome":"PARAMOTI"}},{"type":"Feature","geometry":{"type":"Polygon","coordinates":[[[-39.6322,-5.6065],[-39.5963,-5.5803],[-39.58,-5.504],[-39.639,-5.4728],[-39.6683,-5.4126],[-39.6557,-5.3733],[-39.6652,-5.3625],[-39.6872,-5.3584],[-39.7827,-5.3795],[-39.7993,-5.3989],[-39.8423,-5.3689],[-39.8764,-5.3739],[-39.8969,-5.3968],[-39.9223,-5.39],[-39.9574,-5.3483],[-39.9931,-5.3498],[-40.0209,-5.328],[-40.0547,-5.3626],[-40.0588,-5.3974],[-40.054,-5.4872],[-40.028,-5.4903],[-40.0138,-5.5186],[-40.0573,-5.5985],[-40.0542,-5.6415],[-40.0736,-5.6651],[-40.0426,-5.7119],[-40.0224,-5.7101],[-40.0475,-5.674],[-40.012,-5.6244],[-39.9317,-5.6331],[-39.852,-5.6262],[-39.8181,-5.568],[-39.7696,-5.5879],[-39.6913,-5.5999],[-39.6754,-5.6215],[-39.6322,-5.6065]]]},"properties":{"cd":"15113","nome":"PEDRA BRANCA"}},{"type":"Feature","geometry":{"type":"Polygon","coordinates":[[[-39.1026,-7.771],[-39.088,-7.8326],[-39.018,-7.8127],[-39.0014,-7.8401],[-38.966,-7.8456],[-38.9586,-7.8174],[-38.9704,-7.7773],[-39.008,-7.7782],[-39.0595,-7.7505],[-39.1178,-7.6835],[-39.1466,-7.7182],[-39.1026,-7.771]]]},"properties":{"cd":"15130","nome":"PENAFORTE"}},{"type":"Feature","geometry":{"type":"Polygon","coordinates":[[[-39.4148,-3.8299],[-39.3542,-3.8444],[-39.3404,-3.8608],[-39.3087,-3.9364],[-39.2939,-3.9198],[-39.2401,-3.9003],[-39.2145,-3.9454],[-39.1825,-3.978],[-39.2037,-4.0468],[-39.0639,-4.0665],[-39.0278,-4.0631],[-39.0035,-3.9918],[-38.9435,-3.9447],[-38.9882,-3.8693],[-38.9993,-3.8354],[-38.9785,-3.7787],[-38.9571,-3.7683],[-38.9615,-3.712],[-39.0015,-3.685],[-39.1433,-3.7039],[-39.2136,-3.6929],[-39.2767,-3.7371],[-39.3546,-3.7388],[-39.367,-3.7675],[-39.4323,-3.7847],[-39.4148,-3.8299]]]},"properties":{"cd":"15156","nome":"PENTECOSTE"}},{"type":"Feature","geometry":{"type":"Polygon","coordinates":[[[-38.4048,-6.0573],[-38.4221,-6.0121],[-38.3976,-5.9946],[-38.4118,-5.8985],[-38.4569,-5.8712],[-38.4746,-5.779],[-38.4852,-5.7926],[-38.4826,-5.8497],[-38.512,-5.8779],[-38.4912,-5.9254],[-38.5163,-5.9875],[-38.5199,-6.0272],[-38.5403,-6.0422],[-38.5885,-6.1643],[-38.6004,-6.178],[-38.5512,-6.2343],[-38.5197,-6.223],[-38.5272,-6.1934],[-38.4755,-6.157],[-38.466,-6.1214],[-38.4331,-6.0781],[-38.4048,-6.0573]]]},"properties":{"cd":"15172","nome":"PEREIRO"}},{"type":"Feature","geometry":{"type":"Polygon","coordinates":[[[-38.3703,-4.0656],[-38.3488,-4.0881],[-38.2913,-4.0964],[-38.2628,-4.0734],[-38.2364,-4.0228],[-38.2533,-4.0287],[-38.3133,-4.011],[-38.3703,-4.0656]]]},"properties":{"cd":"13285","nome":"PINDORETAMA"}},{"type":"Feature","geometry":{"type":"Polygon","coordinates":[[[-39.3633,-5.9809],[-39.3542,-5.9517],[-39.3683,-5.9014],[-39.3416,-5.8514],[-39.3411,-5.8083],[-39.3278,-5.7828],[-39.4345,-5.7285],[-39.4525,-5.7375],[-39.4753,-5.7011],[-39.5032,-5.73],[-39.5566,-5.8493],[-39.5463,-5.8624],[-39.5658,-5.9626],[-39.5357,-5.9798],[-39.4813,-5.988],[-39.3633,-5.9809]]]},"properties":{"cd":"15199","nome":"PIQUET CARNEIRO"}},{"type":"Feature","geometry":{"type":"Polygon","coordinates":[[[-40.687,-4.2097],[-40.7037,-4.2834],[-40.6642,-4.3092],[-40.6488,-4.2941],[-40.5686,-4.3146],[-40.4781,-4.2923],[-40.4508,-4.2603],[-40.451,-4.2091],[-40.5172,-4.2561],[-40.5496,-4.215],[-40.5981,-4.2024],[-40.687,-4.2097]]]},"properties":{"cd":"13048","nome":"PIRES FERREIRA"}},{"type":"Feature","geometry":{"type":"Polygon","coordinates":[[[-40.8823,-4.7842],[-40.8722,-4.7123],[-40.9553,-4.7164],[-40.9871,-4.66],[-41.0989,-4.6024],[-41.1477,-4.5997],[-41.2398,-4.5736],[-41.2334,-4.6102],[-41.1811,-4.6732],[-41.2503,-4.7566],[-41.2128,-4.772],[-41.2332,-4.8101],[-41.2496,-4.8697],[-41.2281,-4.891],[-41.2204,-4.939],[-41.189,-4.9406],[-41.1212,-5.0239],[-41.0506,-5.0262],[-41.0333,-4.9654],[-40.9922,-4.915],[-40.9419,-4.8825],[-40.9284,-4.8861],[-40.8757,-4.8545],[-40.8823,-4.7842]]]},"properties":{"cd":"15210","nome":"PORANGA"}},{"type":"Feature","geometry":{"type":"Polygon","coordinates":[[[-39.0272,-7.6343],[-39.0299,-7.533],[-39.0884,-7.4856],[-39.1535,-7.4509],[-39.1872,-7.4739],[-39.1949,-7.5036],[-39.1709,-7.5628],[-39.0726,-7.6262],[-39.0272,-7.6343]]]},"properties":{"cd":"15237","nome":"PORTEIRAS"}},{"type":"Feature","geometry":{"type":"Polygon","coordinates":[[[-40.1647,-7.0474],[-40.1362,-7.1123],[-40.0719,-7.1457],[-40.0,-7.1511],[-39.9809,-7.1451],[-39.9175,-7.0943],[-39.8973,-7.097],[-39.8899,-7.0532],[-39.943,-7.0768],[-39.9494,-7.0108],[-40.0732,-7.0051],[-40.0818,-6.9829],[-40.1223,-7.0221],[-40.1647,-7.0474]]]},"properties":{"cd":"15253","nome":"POTENGI"}},{"type":"Feature","geometry":{"type":"Polygon","coordinates":[[[-38.2488,-5.6455],[-38.2667,-5.6782],[-38.2486,-5.7308],[-38.2496,-5.7705],[-38.2267,-5.8337],[-38.1509,-5.8604],[-38.1465,-5.892],[-38.1593,-5.9246],[-38.1225,-5.8817],[-38.1189,-5.8328],[-38.0586,-5.7549],[-38.0469,-5.7329],[-38.0897,-5.7148],[-38.0828,-5.6724],[-38.1377,-5.6753],[-38.1941,-5.6328],[-38.2488,-5.6455]]]},"properties":{"cd":"13269","nome":"POTIRETAMA"}},{"type":"Feature","geometry":{"type":"Polygon","coordinates":[[[-40.6169,-5.735],[-40.6541,-5.6997],[-40.669,-5.6661],[-40.695,-5.6434],[-40.7497,-5.7197],[-40.7918,-5.7334],[-40.8438,-5.7706],[-40.9098,-5.7657],[-40.9056,-5.8493],[-40.8802,-5.9177],[-40.8736,-5.9731],[-40.9039,-6.0209],[-40.9063,-6.0465],[-40.8728,-6.0566],[-40.8577,-6.1054],[-40.8069,-6.105],[-40.7905,-6.0887],[-40.748,-6.0908],[-40.7379,-6.0582],[-40.7141,-6.0395],[-40.7336,-6.0298],[-40.7431,-5.9792],[-40.7127,-5.9661],[-40.6818,-5.8728],[-40.6425,-5.8402],[-40.5653,-5.8407],[-40.5702,-5.7575],[-40.6169,-5.735]]]},"properties":{"cd":"13102","nome":"QUITERIANÓPOLIS"}},{"type":"Feature","geometry":{"type":"Polygon","coordinates":[[[-38.6475,-4.9376],[-38.7012,-4.9024],[-38.8827,-4.9352],[-38.8913,-4.8934],[-38.9186,-4.8519],[-38.8752,-4.8519],[-38.8023,-4.741],[-38.8744,-4.6795],[-38.883,-4.7082],[-38.9233,-4.7391],[-38.9441,-4.7404],[-38.9781,-4.6679],[-39.0349,-4.6678],[-39.0406,-4.711],[-39.0725,-4.7262],[-39.1041,-4.7618],[-39.0477,-4.7708],[-39.0655,-4.8119],[-39.1401,-4.8804],[-39.1984,-4.9659],[-39.225,-4.9613],[-39.2169,-5.0098],[-39.1704,-5.0526],[-39.1478,-5.0616],[-39.1611,-5.1185],[-39.149,-5.144],[-39.0832,-5.1512],[-39.0316,-5.1641],[-38.9569,-5.1527],[-38.9003,-5.1637],[-38.8131,-5.0666],[-38.7616,-5.0787],[-38.7441,-5.0949],[-38.6993,-5.0934],[-38.6502,-5.1224],[-38.6182,-5.1189],[-38.6251,-5.0666],[-38.6767,-5.0283],[-38.6777,-5.0054],[-38.6474,-4.9799],[-38.6475,-4.9376]]]},"properties":{"cd":"15270","nome":"QUIXADÁ"}},{"type":"Feature","geometry":{"type":"Polygon","coordinates":[[[-39.3077,-6.1746],[-39.2771,-6.1717],[-39.2717,-6.2402],[-39.2787,-6.2792],[-39.2176,-6.2705],[-39.217,-6.2892],[-39.1631,-6.3047],[-39.1347,-6.289],[-39.0971,-6.2422],[-39.0563,-6.2588],[-39.0032,-6.2202],[-38.9862,-6.1566],[-38.9688,-6.1224],[-38.9761,-6.1028],[-38.9897,-6.0764],[-38.9865,-6.0285],[-39.0185,-6.0052],[-39.0507,-6.0254],[-39.09,-6.0937],[-39.1417,-6.1544],[-39.2597,-6.1284],[-39.3077,-6.1746]]]},"properties":{"cd":"98531","nome":"QUIXELÔ"}},{"type":"Feature","geometry":{"type":"Polygon","coordinates":[[[-39.6557,-5.3733],[-39.6306,-5.3994],[-39.5787,-5.4061],[-39.4641,-5.4758],[-39.3676,-5.526],[-39.3089,-5.5093],[-39.2801,-5.5262],[-39.2468,-5.5925],[-39.1912,-5.5251],[-39.1163,-5.5071],[-39.0603,-5.5111],[-39.0713,-5.4863],[-39.0555,-5.4297],[-39.0851,-5.4025],[-39.0545,-5.3],[-39.0335,-5.2663],[-39.0469,-5.2264],[-39.0887,-5.173],[-39.0832,-5.1512],[-39.149,-5.144],[-39.1611,-5.1185],[-39.1478,-5.0616],[-39.1704,-5.0526],[-39.2169,-5.0098],[-39.225,-4.9613],[-39.2535,-4.9191],[-39.3001,-4.8802],[-39.3035,-4.8443],[-39.3316,-4.8353],[-39.3401,-4.7922],[-39.365,-4.8465],[-39.3468,-4.8962],[-39.366,-4.9331],[-39.3483,-4.9603],[-39.3744,-4.9732],[-39.3945,-4.9274],[-39.4807,-4.9767],[-39.4726,-5.0087],[-39.5023,-5.0522],[-39.6288,-5.043],[-39.6139,-5.0843],[-39.5362,-5.1188],[-39.624,-5.2552],[-39.627,-5.3071],[-39.6652,-5.3625],[-39.6557,-5.3733]]]},"properties":{"cd":"15296","nome":"QUIXERAMOBIM"}},{"type":"Feature","geometry":{"type":"Polygon","coordinates":[[[-38.0609,-5.0805],[-38.0029,-5.081],[-37.9698,-5.1025],[-37.9262,-5.1733],[-37.8238,-5.2272],[-37.7848,-5.2402],[-37.7882,-5.2192],[-37.765,-5.1396],[-37.7334,-5.1006],[-37.7251,-5.0706],[-37.6771,-5.0523],[-37.8197,-4.9843],[-37.9023,-4.981],[-37.9337,-5.0026],[-38.018,-5.0244],[-38.0609,-5.0805]]]},"properties":{"cd":"15318","nome":"QUIXERÉ"}},{"type":"Feature","geometry":{"type":"Polygon","coordinates":[[[-38.7656,-4.3055],[-38.7455,-4.3521],[-38.7113,-4.3841],[-38.6936,-4.3799],[-38.6999,-4.3301],[-38.6869,-4.2871],[-38.7207,-4.2799],[-38.7069,-4.2478],[-38.7175,-4.1872],[-38.7192,-4.1683],[-38.7888,-4.1422],[-38.8033,-4.1614],[-38.8545,-4.1771],[-38.8488,-4.2298],[-38.8095,-4.2503],[-38.7956,-4.2957],[-38.7656,-4.3055]]]},"properties":{"cd":"15334","nome":"REDENÇÃO"}},{"type":"Feature","geometry":{"type":"Polygon","coordinates":[[[-40.4724,-4.0858],[-40.5127,-4.0463],[-40.5679,-4.0469],[-40.6392,-4.0158],[-40.6826,-4.0576],[-40.7129,-4.1283],[-40.7111,-4.1684],[-40.7267,-4.2044],[-40.687,-4.2097],[-40.5981,-4.2024],[-40.5188,-4.1656],[-40.5144,-4.1335],[-40.5329,-4.0978],[-40.4724,-4.0858]]]},"properties":{"cd":"15350","nome":"RERIUTABA"}},{"type":"Feature","geometry":{"type":"Polygon","coordinates":[[[-37.8197,-4.9843],[-37.8745,-4.9395],[-37.8867,-4.9054],[-37.8835,-4.8542],[-37.9004,-4.8209],[-38.0423,-4.8447],[-38.0601,-4.8127],[-38.0487,-4.7781],[-38.095,-4.7038],[-38.147,-4.6645],[-38.1821,-4.6227],[-38.2146,-4.5902],[-38.3032,-4.6807],[-38.3303,-4.675],[-38.3746,-4.7294],[-38.4682,-4.8165],[-38.4363,-4.8341],[-38.4153,-4.8633],[-38.3576,-4.8474],[-38.3101,-4.8576],[-38.2615,-4.8838],[-38.2133,-4.9742],[-38.1882,-4.9754],[-38.0609,-5.0805],[-38.018,-5.0244],[-37.9337,-5.0026],[-37.9023,-4.981],[-37.8197,-4.9843]]]},"properties":{"cd":"15377","nome":"RUSSAS"}},{"type":"Feature","geometry":{"type":"Polygon","coordinates":[[[-39.7893,-6.2065],[-39.7972,-6.2423],[-39.8476,-6.352],[-39.8947,-6.368],[-39.9237,-6.3418],[-40.0298,-6.3311],[-40.0611,-6.3666],[-40.0841,-6.3674],[-40.0762,-6.4],[-40.0335,-6.4316],[-40.0591,-6.5009],[-40.0327,-6.5403],[-40.0262,-6.5827],[-40.0548,-6.6113],[-40.0051,-6.6868],[-39.9866,-6.6802],[-39.9397,-6.712],[-39.9133,-6.6887],[-39.838,-6.6792],[-39.833,-6.6999],[-39.7752,-6.6568],[-39.7676,-6.627],[-39.7366,-6.6127],[-39.7728,-6.6065],[-39.7288,-6.5434],[-39.7504,-6.5209],[-39.7248,-6.4964],[-39.7718,-6.4597],[-39.776,-6.4108],[-39.7271,-6.3705],[-39.7089,-6.3404],[-39.7202,-6.2728],[-39.7702,-6.205],[-39.7893,-6.2065]]]},"properties":{"cd":"15393","nome":"SABOEIRO"}},{"type":"Feature","geometry":{"type":"Polygon","coordinates":[[[-40.1223,-7.0221],[-40.1346,-7.0012],[-40.2131,-7.0294],[-40.2516,-7.0602],[-40.3239,-7.082],[-40.3349,-7.1277],[-40.4469,-7.0893],[-40.4594,-7.0785],[-40.4897,-7.1187],[-40.4844,-7.1332],[-40.5061,-7.2109],[-40.5237,-7.3185],[-40.4491,-7.3611],[-40.3939,-7.3682],[-40.361,-7.3556],[-40.3454,-7.3292],[-40.3107,-7.3007],[-40.263,-7.301],[-40.242,-7.318],[-40.2668,-7.2484],[-40.2515,-7.2022],[-40.2686,-7.1747],[-40.2405,-7.1143],[-40.183,-7.0851],[-40.1647,-7.0474],[-40.1223,-7.0221]]]},"properties":{"cd":"15440","nome":"SALITRE"}},{"type":"Feature","geometry":{"type":"Polygon","coordinates":[[[-40.2693,-3.5729],[-40.2022,-3.6045],[-40.2129,-3.6261],[-40.174,-3.674],[-40.1471,-3.6689],[-40.1117,-3.6902],[-40.1111,-3.6443],[-40.07,-3.5939],[-40.0427,-3.5648],[-40.0485,-3.5316],[-40.0276,-3.4373],[-39.9965,-3.4086],[-39.9872,-3.3655],[-40.0701,-3.3672],[-40.0922,-3.3545],[-40.107,-3.3188],[-40.1462,-3.3036],[-40.1852,-3.3191],[-40.2011,-3.3077],[-40.3412,-3.3162],[-40.342,-3.3509],[-40.3365,-3.4042],[-40.3073,-3.4099],[-40.2711,-3.4821],[-40.2525,-3.5021],[-40.2565,-3.5595],[-40.2693,-3.5729]]]},"properties":{"cd":"15415","nome":"SANTANA DO ACARAÚ"}},{"type":"Feature","geometry":{"type":"Polygon","coordinates":[[[-39.8901,-7.3398],[-39.8577,-7.3254],[-39.8287,-7.3324],[-39.7413,-7.3268],[-39.7062,-7.3378],[-39.6457,-7.3809],[-39.6266,-7.427],[-39.5992,-7.4287],[-39.5998,-7.2096],[-39.6932,-7.1704],[-39.7421,-7.0931],[-39.7574,-7.045],[-39.7475,-7.0225],[-39.7725,-7.061],[-39.8074,-7.0373],[-39.8899,-7.0532],[-39.8973,-7.097],[-39.889,-7.1424],[-39.8901,-7.3398]]]},"properties":{"cd":"15431","nome":"SANTANA DO CARIRI"}},{"type":"Feature","geometry":{"type":"Polygon","coordinates":[[[-40.2544,-4.4721],[-40.2078,-4.4652],[-40.1805,-4.5078],[-40.1126,-4.5107],[-40.0627,-4.4661],[-40.0226,-4.4619],[-40.0015,-4.4884],[-40.0087,-4.5231],[-40.0386,-4.5783],[-40.1078,-4.5918],[-40.1027,-4.6617],[-40.0595,-4.7168],[-39.9262,-4.7349],[-39.9286,-4.7745],[-39.8849,-4.7902],[-39.8559,-4.7363],[-39.8238,-4.73],[-39.8068,-4.7078],[-39.7426,-4.7196],[-39.7294,-4.6959],[-39.7175,-4.6778],[-39.77,-4.6307],[-39.6866,-4.576],[-39.7044,-4.5441],[-39.7458,-4.5448],[-39.7682,-4.5236],[-39.7226,-4.4842],[-39.7295,-4.4475],[-39.7519,-4.4075],[-39.7115,-4.3802],[-39.7345,-4.3332],[-39.7302,-4.2749],[-39.7658,-4.248],[-39.7879,-4.1886],[-39.7739,-4.1737],[-39.7945,-4.1613],[-39.8185,-4.1179],[-39.8406,-4.1135],[-39.8596,-4.1386],[-39.8928,-4.1428],[-39.9629,-4.1219],[-39.9911,-4.0864],[-40.0145,-4.0883],[-40.1383,-4.0309],[-40.1887,-3.9587],[-40.3049,-3.9332],[-40.3375,-3.9701],[-40.3602,-4.0319],[-40.3735,-4.0919],[-40.4313,-4.0909],[-40.4313,-4.1583],[-40.451,-4.2091],[-40.4508,-4.2603],[-40.3024,-4.2686],[-40.3226,-4.3134],[-40.3199,-4.3556],[-40.2544,-4.4721]]]},"properties":{"cd":"15458","nome":"SANTA QUITÉRIA"}},{"type":"Feature","geometry":{"type":"Polygon","coordinates":[[[-40.8103,-4.1185],[-40.8471,-4.1031],[-40.8348,-4.0516],[-40.8376,-3.9859],[-40.8565,-3.9752],[-40.8995,-3.9931],[-40.9643,-3.9821],[-41.0744,-3.9955],[-41.1176,-3.9872],[-41.1657,-4.0],[-41.1829,-4.018],[-41.1688,-4.0331],[-41.1203,-4.0363],[-41.1132,-4.0498],[-41.1394,-4.121],[-41.0964,-4.0656],[-41.0681,-4.0496],[-41.0334,-4.0669],[-40.9804,-4.0549],[-40.9408,-4.0576],[-40.8912,-4.1097],[-40.9009,-4.159],[-40.8523,-4.1538],[-40.8337,-4.1182],[-40.8103,-4.1185]]]},"properties":{"cd":"15474","nome":"SÃO BENEDITO"}},{"type":"Feature","geometry":{"type":"Polygon","coordinates":[[[-38.8066,-3.5485],[-38.8522,-3.5408],[-38.9179,-3.4943],[-38.9321,-3.4654],[-38.9681,-3.5112],[-38.9578,-3.5419],[-38.9963,-3.5541],[-39.0496,-3.5541],[-39.1005,-3.5322],[-39.1665,-3.523],[-39.2625,-3.4905],[-39.3031,-3.5342],[-39.3149,-3.5799],[-39.2622,-3.5851],[-39.2157,-3.6086],[-39.2273,-3.665],[-39.2136,-3.6929],[-39.1433,-3.7039],[-39.0015,-3.685],[-38.9615,-3.712],[-38.9184,-3.6667],[-38.8816,-3.6854],[-38.8319,-3.5708],[-38.8066,-3.5485]]]},"properties":{"cd":"15490","nome":"SÃO GONÇALO DO AMARANTE"}},{"type":"Feature","geometry":{"type":"Polygon","coordinates":[[[-38.3944,-5.363],[-38.3413,-5.4035],[-38.3137,-5.3834],[-38.2607,-5.4105],[-38.1585,-5.3578],[-38.2077,-5.321],[-38.2251,-5.2893],[-38.2107,-5.2452],[-38.2334,-5.217],[-38.2381,-5.2109],[-38.3293,-5.2749],[-38.328,-5.3145],[-38.3626,-5.3494],[-38.3944,-5.363]]]},"properties":{"cd":"15512","nome":"SÃO JOÃO DO JAGUARIBE"}},{"type":"Feature","geometry":{"type":"Polygon","coordinates":[[[-39.2136,-3.6929],[-39.2273,-3.665],[-39.2157,-3.6086],[-39.2622,-3.5851],[-39.3149,-3.5799],[-39.3069,-3.664],[-39.2784,-3.6742],[-39.2767,-3.7371],[-39.2136,-3.6929]]]},"properties":{"cd":"15539","nome":"SÃO LUÍS DO CURU"}},{"type":"Feature","geometry":{"type":"Polygon","coordinates":[[[-39.4753,-5.7011],[-39.4525,-5.7375],[-39.4345,-5.7285],[-39.3278,-5.7828],[-39.273,-5.7619],[-39.2607,-5.7157],[-39.2692,-5.6336],[-39.2468,-5.5925],[-39.2801,-5.5262],[-39.3089,-5.5093],[-39.3676,-5.526],[-39.4641,-5.4758],[-39.5787,-5.4061],[-39.6306,-5.3994],[-39.6557,-5.3733],[-39.6683,-5.4126],[-39.639,-5.4728],[-39.58,-5.504],[-39.5963,-5.5803],[-39.6322,-5.6065],[-39.6018,-5.625],[-39.587,-5.6063],[-39.5456,-5.613],[-39.4828,-5.6364],[-39.4393,-5.6657],[-39.4753,-5.7011]]]},"properties":{"cd":"15555","nome":"SENADOR POMPEU"}},{"type":"Feature","geometry":{"type":"Polygon","coordinates":[[[-40.5325,-3.2404],[-40.4933,-3.26],[-40.4804,-3.2997],[-40.4864,-3.3351],[-40.541,-3.41],[-40.5617,-3.4065],[-40.5703,-3.4383],[-40.5373,-3.4484],[-40.5156,-3.393],[-40.4225,-3.3697],[-40.3927,-3.3821],[-40.3552,-3.3715],[-40.342,-3.3509],[-40.3412,-3.3162],[-40.3407,-3.2901],[-40.3858,-3.2729],[-40.4502,-3.1806],[-40.4537,-3.1503],[-40.5095,-3.1096],[-40.5744,-3.1357],[-40.5754,-3.1662],[-40.5475,-3.1879],[-40.5325,-3.2404]]]},"properties":{"cd":"15571","nome":"SENADOR SÁ"}},{"type":"Feature","geometry":{"type":"Polygon","coordinates":[[[-40.3701,-3.8616],[-40.3405,-3.7833],[-40.3075,-3.7867],[-40.3051,-3.7487],[-40.2357,-3.6975],[-40.1261,-3.7009],[-40.1149,-3.7859],[-40.1382,-3.8966],[-40.1887,-3.9587],[-40.1383,-4.0309],[-40.0145,-4.0883],[-39.9911,-4.0864],[-39.9629,-4.1219],[-39.8928,-4.1428],[-39.8596,-4.1386],[-39.8406,-4.1135],[-39.8722,-4.0462],[-39.9174,-4.0341],[-39.9223,-3.9919],[-39.9992,-3.9305],[-40.0069,-3.8991],[-39.9249,-3.9461],[-39.9763,-3.7767],[-40.0118,-3.7601],[-40.0149,-3.7121],[-40.0094,-3.6479],[-39.9933,-3.6263],[-39.9841,-3.5765],[-40.0443,-3.5811],[-40.07,-3.5939],[-40.1111,-3.6443],[-40.1117,-3.6902],[-40.1471,-3.6689],[-40.174,-3.674],[-40.2129,-3.6261],[-40.2022,-3.6045],[-40.2693,-3.5729],[-40.2967,-3.5908],[-40.3105,-3.6218],[-40.3619,-3.6156],[-40.3998,-3.6271],[-40.4065,-3.6453],[-40.499,-3.6298],[-40.5146,-3.6489],[-40.5487,-3.6537],[-40.6105,-3.65],[-40.6557,-3.7973],[-40.7154,-3.806],[-40.7236,-3.8211],[-40.6792,-3.8418],[-40.6227,-3.8254],[-40.5815,-3.8605],[-40.5009,-3.8525],[-40.4454,-3.8348],[-40.4157,-3.8065],[-40.3897,-3.7995],[-40.3701,-3.8616]]]},"properties":{"cd":"15598","nome":"SOBRAL"}},{"type":"Feature","geometry":{"type":"Polygon","coordinates":[[[-39.0507,-6.0254],[-39.0185,-6.0052],[-38.9865,-6.0285],[-38.9897,-6.0764],[-38.9761,-6.1028],[-38.9628,-6.0212],[-38.9382,-5.9564],[-38.9195,-5.9494],[-38.8791,-5.8661],[-38.84,-5.833],[-38.8371,-5.8128],[-38.8049,-5.7867],[-38.8808,-5.6557],[-38.9092,-5.5953],[-38.9038,-5.4699],[-38.911,-5.4555],[-38.9289,-5.4857],[-38.9754,-5.521],[-39.027,-5.4899],[-39.1632,-5.7985],[-39.1822,-5.8599],[-39.1699,-5.9602],[-39.1306,-5.9836],[-39.1126,-5.9771],[-39.0601,-6.0033],[-39.0507,-6.0254]]]},"properties":{"cd":"15610","nome":"SOLONÓPOLE"}},{"type":"Feature","geometry":{"type":"Polygon","coordinates":[[[-38.1585,-5.3578],[-38.0777,-5.4451],[-38.0358,-5.5672],[-38.0574,-5.6101],[-38.0281,-5.6233],[-37.9983,-5.5853],[-37.99,-5.5558],[-37.9506,-5.5366],[-37.9347,-5.5053],[-37.9022,-5.5007],[-37.8895,-5.4523],[-37.8605,-5.4067],[-37.8637,-5.3741],[-37.8475,-5.34],[-37.8128,-5.3166],[-37.7869,-5.2972],[-37.9302,-5.2972],[-37.9675,-5.2544],[-37.9939,-5.2456],[-38.0716,-5.1821],[-38.1344,-5.2134],[-38.2082,-5.1937],[-38.2334,-5.217],[-38.2107,-5.2452],[-38.2251,-5.2893],[-38.2077,-5.321],[-38.1585,-5.3578]]]},"properties":{"cd":"15636","nome":"TABULEIRO DO NORTE"}},{"type":"Feature","geometry":{"type":"Polygon","coordinates":[[[-40.1361,-4.8129],[-40.1841,-4.7845],[-40.2102,-4.7925],[-40.2731,-4.7701],[-40.3048,-4.7326],[-40.3093,-4.691],[-40.3377,-4.6654],[-40.3188,-4.6226],[-40.2934,-4.6004],[-40.3221,-4.5766],[-40.3459,-4.5807],[-40.3813,-4.5488],[-40.4462,-4.7325],[-40.5243,-4.8479],[-40.54,-4.8429],[-40.5411,-4.9153],[-40.6356,-4.9247],[-40.5964,-4.9574],[-40.5666,-5.0198],[-40.5394,-5.0126],[-40.4958,-5.0365],[-40.448,-5.0336],[-40.3746,-5.1189],[-40.4142,-5.2284],[-40.3132,-5.1554],[-40.304,-5.1685],[-40.2292,-5.1528],[-40.1912,-5.1709],[-40.16,-5.1648],[-40.1351,-5.1292],[-40.1374,-5.0726],[-40.1496,-5.0342],[-40.1057,-5.024],[-40.1395,-4.9708],[-40.1658,-4.9643],[-40.1686,-4.9349],[-40.1957,-4.9067],[-40.114,-4.8828],[-40.1101,-4.8505],[-40.1361,-4.8129]]]},"properties":{"cd":"15652","nome":"TAMBORIL"}},{"type":"Feature","geometry":{"type":"Polygon","coordinates":[[[-39.9094,-6.7635],[-39.8788,-6.7674],[-39.7908,-6.8023],[-39.7414,-6.8055],[-39.7086,-6.7853],[-39.6915,-6.8245],[-39.6531,-6.8207],[-39.6158,-6.7885],[-39.5993,-6.7586],[-39.6414,-6.739],[-39.6471,-6.6849],[-39.6658,-6.6373],[-39.7374,-6.6332],[-39.7366,-6.6127],[-39.7676,-6.627],[-39.7752,-6.6568],[-39.833,-6.6999],[-39.9094,-6.7635]]]},"properties":{"cd":"13366","nome":"TARRAFAS"}},{"type":"Feature","geometry":{"type":"Polygon","coordinates":[[[-39.9564,-6.1003],[-39.9599,-6.0855],[-39.9091,-6.058],[-39.8557,-5.9872],[-39.8363,-5.9771],[-39.8337,-5.9411],[-39.8708,-5.9105],[-39.8715,-5.8836],[-39.9134,-5.8991],[-39.9409,-5.8794],[-39.9239,-5.839],[-39.9753,-5.8218],[-40.0064,-5.777],[-40.0062,-5.7202],[-40.0224,-5.7101],[-40.0426,-5.7119],[-40.0736,-5.6651],[-40.0542,-5.6415],[-40.0573,-5.5985],[-40.0138,-5.5186],[-40.028,-5.4903],[-40.054,-5.4872],[-40.0588,-5.3974],[-40.1063,-5.4531],[-40.1105,-5.5348],[-40.1245,-5.5541],[-40.1724,-5.5601],[-40.2287,-5.5918],[-40.2356,-5.6331],[-40.2112,-5.6909],[-40.2905,-5.7559],[-40.3218,-5.7422],[-40.3631,-5.7434],[-40.411,-5.8106],[-40.4867,-5.8349],[-40.5299,-5.8174],[-40.5653,-5.8407],[-40.6425,-5.8402],[-40.6818,-5.8728],[-40.7127,-5.9661],[-40.7431,-5.9792],[-40.7336,-6.0298],[-40.7141,-6.0395],[-40.6884,-6.0111],[-40.6115,-5.9901],[-40.5432,-6.0041],[-40.4927,-5.9818],[-40.4661,-6.0172],[-40.4939,-6.0836],[-40.5086,-6.1445],[-40.5316,-6.16],[-40.4881,-6.2033],[-40.4994,-6.2506],[-40.5661,-6.2918],[-40.6106,-6.3378],[-40.5275,-6.3483],[-40.4352,-6.3345],[-40.4052,-6.3125],[-40.226,-6.1316],[-40.1955,-6.1426],[-40.1462,-6.1121],[-40.0693,-6.1113],[-40.0471,-6.0984],[-39.9564,-6.1003]]]},"properties":{"cd":"15679","nome":"TAUÁ"}},{"type":"Feature","geometry":{"type":"Polygon","coordinates":[[[-39.4304,-3.8555],[-39.4765,-3.8576],[-39.4934,-3.8192],[-39.4897,-3.7602],[-39.5152,-3.7459],[-39.5884,-3.8255],[-39.6395,-3.8221],[-39.6783,-3.8327],[-39.7178,-3.8775],[-39.7055,-3.9435],[-39.7076,-4.0183],[-39.6927,-4.0216],[-39.6649,-4.0817],[-39.6282,-4.0698],[-39.5976,-4.0944],[-39.5574,-4.1013],[-39.5327,-4.0844],[-39.5028,-4.0013],[-39.4857,-4.0052],[-39.4841,-3.9739],[-39.4576,-3.9289],[-39.4304,-3.8555]]]},"properties":{"cd":"13323","nome":"TEJUÇUOCA"}},{"type":"Feature","geometry":{"type":"Polygon","coordinates":[[[-40.8909,-3.6679],[-40.904,-3.5753],[-40.8568,-3.5359],[-40.8217,-3.4708],[-40.8491,-3.4172],[-40.8844,-3.4885],[-40.8867,-3.5204],[-40.8769,-3.5325],[-40.9541,-3.6011],[-41.0101,-3.6332],[-41.0458,-3.6648],[-41.1203,-3.7116],[-41.1468,-3.6962],[-41.2393,-3.7128],[-41.2613,-3.7462],[-41.2541,-3.775],[-41.2879,-3.8225],[-41.2457,-3.8964],[-41.2049,-3.8993],[-41.1319,-3.8441],[-41.0547,-3.84],[-41.0358,-3.8495],[-40.9731,-3.8419],[-40.953,-3.8048],[-40.8953,-3.781],[-40.8742,-3.7225],[-40.8909,-3.6679]]]},"properties":{"cd":"15695","nome":"TIANGUÁ"}},{"type":"Feature","geometry":{"type":"Polygon","coordinates":[[[-39.2625,-3.4905],[-39.2536,-3.3966],[-39.238,-3.3596],[-39.2058,-3.3563],[-39.1648,-3.3262],[-39.2277,-3.2408],[-39.257,-3.2195],[-39.3225,-3.2007],[-39.3414,-3.1805],[-39.3793,-3.1833],[-39.4313,-3.208],[-39.4758,-3.1973],[-39.5079,-3.2024],[-39.5041,-3.2411],[-39.5222,-3.2743],[-39.5046,-3.2975],[-39.5053,-3.3407],[-39.481,-3.396],[-39.4679,-3.4018],[-39.331,-3.5016],[-39.3437,-3.541],[-39.3742,-3.5779],[-39.3149,-3.5799],[-39.3031,-3.5342],[-39.2625,-3.4905]]]},"properties":{"cd":"15717","nome":"TRAIRI"}},{"type":"Feature","geometry":{"type":"Polygon","coordinates":[[[-39.4556,-3.6431],[-39.4263,-3.6558],[-39.3543,-3.6624],[-39.3898,-3.6083],[-39.3742,-3.5779],[-39.3437,-3.541],[-39.331,-3.5016],[-39.4679,-3.4018],[-39.4263,-3.4713],[-39.4016,-3.5501],[-39.4537,-3.5851],[-39.5045,-3.5745],[-39.4914,-3.6022],[-39.4205,-3.6262],[-39.4556,-3.6431]]]},"properties":{"cd":"13080","nome":"TURURU"}},{"type":"Feature","geometry":{"type":"Polygon","coordinates":[[[-40.7796,-3.7862],[-40.8439,-3.7887],[-40.8953,-3.781],[-40.953,-3.8048],[-40.9731,-3.8419],[-41.0358,-3.8495],[-41.0547,-3.84],[-41.1319,-3.8441],[-41.2049,-3.8993],[-41.2457,-3.8964],[-41.2202,-3.9415],[-41.2289,-3.9681],[-41.2118,-3.9724],[-41.1681,-3.9455],[-41.1336,-3.942],[-40.9783,-3.8929],[-40.9319,-3.9068],[-40.8726,-3.8688],[-40.8259,-3.8686],[-40.7897,-3.8372],[-40.7796,-3.7862]]]},"properties":{"cd":"15733","nome":"UBAJARA"}},{"type":"Feature","geometry":{"type":"Polygon","coordinates":[[[-38.8437,-6.6673],[-38.8009,-6.6589],[-38.6725,-6.7062],[-38.647,-6.6542],[-38.6491,-6.6276],[-38.6292,-6.6046],[-38.643,-6.5821],[-38.6071,-6.5295],[-38.6105,-6.5323],[-38.6268,-6.5316],[-38.6793,-6.5631],[-38.7021,-6.5556],[-38.7352,-6.5704],[-38.7755,-6.6123],[-38.7909,-6.6007],[-38.8546,-6.5969],[-38.8766,-6.5816],[-38.8735,-6.6118],[-38.8437,-6.6673]]]},"properties":{"cd":"15750","nome":"UMARI"}},{"type":"Feature","geometry":{"type":"Polygon","coordinates":[[[-39.2767,-3.7371],[-39.2784,-3.6742],[-39.3069,-3.664],[-39.3149,-3.5799],[-39.3742,-3.5779],[-39.3898,-3.6083],[-39.3543,-3.6624],[-39.4263,-3.6558],[-39.4556,-3.6431],[-39.5146,-3.6693],[-39.4959,-3.7218],[-39.4426,-3.7464],[-39.4323,-3.7847],[-39.367,-3.7675],[-39.3546,-3.7388],[-39.2767,-3.7371]]]},"properties":{"cd":"98558","nome":"UMIRIM"}},{"type":"Feature","geometry":{"type":"Polygon","coordinates":[[[-39.5964,-3.6266],[-39.5146,-3.6693],[-39.4556,-3.6431],[-39.4205,-3.6262],[-39.4914,-3.6022],[-39.5045,-3.5745],[-39.5453,-3.575],[-39.5964,-3.6266]]]},"properties":{"cd":"15776","nome":"URUBURETAMA"}},{"type":"Feature","geometry":{"type":"Polygon","coordinates":[[[-40.5617,-3.4065],[-40.541,-3.41],[-40.4864,-3.3351],[-40.4804,-3.2997],[-40.4933,-3.26],[-40.5325,-3.2404],[-40.6691,-3.2476],[-40.7279,-3.2339],[-40.8343,-3.2085],[-40.8216,-3.2962],[-40.8528,-3.316],[-40.8291,-3.3678],[-40.8491,-3.4172],[-40.7716,-3.4225],[-40.7372,-3.4381],[-40.7229,-3.4044],[-40.6952,-3.4014],[-40.6644,-3.3614],[-40.6372,-3.3573],[-40.6051,-3.4114],[-40.5617,-3.4065]]]},"properties":{"cd":"15792","nome":"URUOCA"}},{"type":"Feature","geometry":{"type":"Polygon","coordinates":[[[-40.451,-4.2091],[-40.4313,-4.1583],[-40.4313,-4.0909],[-40.4724,-4.0858],[-40.5329,-4.0978],[-40.5144,-4.1335],[-40.5188,-4.1656],[-40.5981,-4.2024],[-40.5496,-4.215],[-40.5172,-4.2561],[-40.451,-4.2091]]]},"properties":{"cd":"98574","nome":"VARJOTA"}},{"type":"Feature","geometry":{"type":"Polygon","coordinates":[[[-39.2984,-6.5617],[-39.3128,-6.5845],[-39.2795,-6.6292],[-39.2905,-6.6745],[-39.3196,-6.6933],[-39.3363,-6.7248],[-39.3022,-6.7398],[-39.3279,-6.7703],[-39.382,-6.7696],[-39.4423,-6.7902],[-39.4782,-6.7556],[-39.5104,-6.7767],[-39.5169,-6.8101],[-39.5026,-6.8436],[-39.4784,-6.8467],[-39.4832,-6.898],[-39.4187,-6.8951],[-39.395,-6.9224],[-39.3388,-6.9058],[-39.2663,-6.8817],[-39.207,-6.8773],[-39.1858,-6.8637],[-39.1816,-6.8273],[-39.1248,-6.721],[-39.1079,-6.7155],[-39.1298,-6.7104],[-39.1429,-6.6759],[-39.1727,-6.6729],[-39.1786,-6.6133],[-39.2099,-6.6078],[-39.2392,-6.5836],[-39.2984,-6.5617]]]},"properties":{"cd":"15814","nome":"VÁRZEA ALEGRE"}},{"type":"Feature","geometry":{"type":"Polygon","coordinates":[[[-40.8867,-3.5204],[-41.0035,-3.423],[-41.0489,-3.3915],[-41.1262,-3.3585],[-41.1773,-3.3791],[-41.2206,-3.4384],[-41.259,-3.4708],[-41.303,-3.4922],[-41.3206,-3.4979],[-41.3369,-3.5539],[-41.3672,-3.5617],[-41.3313,-3.6247],[-41.3342,-3.684],[-41.3077,-3.6848],[-41.2393,-3.7128],[-41.1468,-3.6962],[-41.1203,-3.7116],[-41.0458,-3.6648],[-41.0101,-3.6332],[-40.9541,-3.6011],[-40.8769,-3.5325],[-40.8867,-3.5204]]]},"properties":{"cd":"15830","nome":"VIÇOSA DO CEARÁ"}}]}